STT,Store Code,Store Name,Address,Region,Province,District,Latlong,,
1,42,HCM - 753 Kha Van Can,"753 Kha Vạn Cân, Phường Linh Tây, Thành phố Thủ Đức, Thành phố Hồ Chí Minh",HCM,Ho Chi Minh,Thu Duc,"10.8532724, 106.7544489",,
2,43,HCM - 174-176 Ta Uyen,"174-176 Tạ Uyên, Phường 6, Quận 11",HCM,Ho Chi Minh,Quan 11,"10.7599529, 106.6535536",,
3,46,HCM - 241-245 Cong Hoa,"241-245 Công Hòa, P13, Tân Bình",HCM,Ho Chi Minh,Tan Binh,"10.8017901, 106.6459902",,
4,48,HCM - 703 Le Hong Phong,"703 Lê Hồng Phong, P12, Q10",HCM,Ho Chi Minh,Quan 10,"10.7710521, 106.6727715",,
5,53,HCM - 101 Tran Quang Khai,"101 Trần Quang Khải, Phường Tân Định, quận 1",HCM,Ho Chi Minh,Quan 1,"10.7921152, 106.6926774",,
6,58,HCM - 317 Hoang Dieu,"317 Hoàng Diệu, P6, Q4",HCM,Ho Chi Minh,Quan 4,"10.7618189, 106.703401",,
7,60,HCM - 182 Hoa Binh,182D Hòa Bình P Hiệp Tận Quận Tân Phú,HCM,Ho Chi Minh,Tan Phu,"10.7708846, 106.6305411",,
8,65,HCM - C1 Pham Hung,"C1/20A Đường Phạm Hùng , Ấp 4 Xã Bình Hưng , Huyện Bình Chánh , Tp.HCM",HCM,Ho Chi Minh,Binh Chanh,"10.7325527, 106.6684848",,
9,76,HCM - 345B Do Xuan Hop,"345B Đỗ Xuân Hợp, Khu phố 5, Phước Long B, Thành phố Thủ Đức, Thành phố Hồ Chí Minh",HCM,Ho Chi Minh,Thu Duc,"10.8218252, 106.7718162",,
10,79,HCM - A3/15 Quoc Lo 50,"A3/15 Ấp 2, Xã Bình Hưng, Bình Chánh, Hồ Chí Minh",HCM,Ho Chi Minh,Binh Chanh,"10.7306442, 106.6509137",,
11,84,HCM - 329 Phan Huy Ich,"329 Phan Huy Ích, Phường 14, Quận Gò Vấp",HCM,Ho Chi Minh,Go Vap,"10.8389662, 106.6369478",,
12,86,HCM - 38 Tran Nao,"38 Trần Não, Phường An Khánh, Thành phố Thủ Đức, Thành phố Hồ Chí Minh",HCM,Ho Chi Minh,Thu Duc,"10.7971167, 106.7311349",,
13,87,HCM - 631 Tinh Lo 10,"631 Tỉnh Lệ 10, P. Bình Trị Đông, Bình Tân",HCM,Ho Chi Minh,Binh Tan,"10.7639086, 106.6143944",,
14,89,HCM - 310 Nguyen Oanh,"310 Nguyễn Oanh, P. 17, Gò Vấp",HCM,Ho Chi Minh,Go Vap,"10.8395258, 106.6759581",,
15,90,BDU - 13 Yersin,"13 Yersin, Tổ 15, Khu 01, P. Phú Cường, TP. Thủ Dầu 1, Tỉnh Bình Dương",SouthEast2,Binh Duong,Thu Dau Mot,"10.9837743, 106.6652231",,
16,92,DON - 178 Pham Van Thuan,"178 Phạm Văn Thuận, Thống Nhất, TP. Biên Hòa, Đồng Nai",SouthEast2,Dong Nai,Bien Hoa,"10.9586504, 106.8356956",,
17,95,DON - 337 Duong 30 thang 4,"337 Đường 30 tháng 4, P. Quyết Thắng, TP. Biên Hòa, Đồng Nai",SouthEast2,Dong Nai,Bien Hoa,"10.9488074, 106.820372",,
18,96,HCM - 14C Nguyen Thi Dinh,"14C Nguyễn Thị Định, P.An Phú, TP. Thủ Đức, TP. HCM",HCM,Ho Chi Minh,Thu Duc,"10.7905101, 106.7542844",,
19,101,HCM - 553 Hau Giang,"553 Hậu Giang, Phường 11, Quận 6, HCM",HCM,Ho Chi Minh,Quan 6,"10.7477661, 106.6353243",,
20,102,HCM - 864 Quoc Lo 22,"864 Quốc Lộ 22, Khu Phố 2, Củ Chi, HCM",HCM,Ho Chi Minh,Cu Chi,"10.8979786, 106.5770665",,
21,103,DLK - 384 Le Duan,"384 Lê Duẩn, P. Eatam, Tp.Ban Mê Thuột",Highland2,Dak Lak,Buon Me Thuot,"12.6574037, 108.0276929",,
22,104,AGI - 2/5 Ton Duc Thang,"2/5 Tôn Đức Thắng, F Mỹ Bình, TP Long Xuyên, An Giang.",Mekong2,An Giang,Long Xuyen,"10.3850154, 105.4369216",,
23,109,CTO - 305H/10 KV3,"305H/10 KV3, An Khánh, Ninh Kiều, Cần Thơ",Mekong2,Can Tho,Ninh Kieu,"10.0306727, 105.7599558",,
24,110,TNI - 518 CMT8,"518 Cách Mạng Tháng Tám, P3, Tây Ninh",SouthEast1,Tay Ninh,Tay Ninh,"11.308295, 106.1080607",,
25,113,DLK - 214 Nguyen Tat Thanh,"214 Nguyễn Tất Thành, P.Tân Lập. Tp. Ban Mê Thuột",Highland2,Dak Lak,Buon Me Thuot,"12.6908483, 108.0614094",,
26,116,HCM - D1B Ap 4 Binh Chanh,"D1B Ấp 4, xã Bình Chánh, huyện Bình Chánh, TpHCM",HCM,Ho Chi Minh,Binh Chanh,"10.6630417, 106.5672462",,
27,117,VLO - 47 Trung Nu Vuong,"47 Trưng Nữ Vương, P1, Tp. Vĩnh Long",Mekong2,Vinh Long,Vinh Long,"10.2530641, 105.9719804",,
28,118,BDU - 182 CMT8,"182 Cách Mạng Tháng Tám, P. Chính Mỹ, Tp. Thủ Dầu Một, Bình Dương",SouthEast2,Binh Duong,Thu Dau Mot,"10.9929842, 106.6557073",,
29,119,HCM - 595 Nguyen Duy Trinh,"595 Nguyễn Duy Trinh, P.Bình Trung Đông, Thành phố Thủ Đức, TP. HCM",HCM,Ho Chi Minh,Thu Duc,"10.7883675, 106.7734108",,
30,120,KGI - 32 Nguyen Trung Truc,"32 Nguyễn Trung Trực, P.Vĩnh Bảo, Tp. Rạch Giá, tỉnh Kiên Giang.",Mekong2,Kien Giang,Rach Gia,"10.0063885, 105.0854752",,
31,121,BTH - 157 Tran Hung Dao,"157 Trần Hưng Đạo, P.Phú Thủy, Tp.Phan Thiết.",Central1,Binh Thuan,Phan Thiet,"10.9365034, 108.1038765",,
32,122,HCM - 6/11A Quang Trung,"6/11A Quang Trung, huyện Hóc Môn, Tp. Hồ Chí Minh",HCM,Ho Chi Minh,Hoc Mon,"10.888353, 106.5988537",,
33,123,HCM - 12/6 To Ky,"12/6 Tô Ký, P. Tân Chánh Hiệp, Q.12, HCM",HCM,Ho Chi Minh,Quan 12,"10.8666066, 106.6158507",,
34,125,AGI - 221/7 Ha Hoang Ho,"221/7 Hà Hoàng Hổ, Phường Mỹ Xuyên, TP. Long Xuyên, An Giang",Mekong2,An Giang,Long Xuyen,"10.3782968, 105.4370404",,
35,126,HCM - 291 CMT8,"291 Cách Mạng Tháng 8, Phường 12, Quận 10, TP. HCM",HCM,Ho Chi Minh,Quan 10,"10.7760746, 106.6738809",,
36,127,TNI - 15-17 Pham Hung,"15-17 Phạm Hùng, Khu phố 2, TT. Hòa Thành, Tỉnh Tây Ninh",SouthEast1,Tay Ninh,Hoa Thanh,"11.2856759, 106.1271912",,
37,128,TGI - 42 Ap Bac,"42 Ấp Bắc, P5, TP. Mỹ Tho, Tiền Giang",Mekong1,Tien Giang,My Tho,"10.3735532, 106.3467125",,
38,131,BPH - 1108 Phu Rieng Do,"1108 Phú Riềng Đỏ, Khu Phố 2, P. Tân Đồng, TX Đồng Xoài, Bình Phước",SouthEast2,Binh Phuoc,Dong Xoai,"11.5381157, 106.9025689",,
39,132,HCM - 172 Le Van Viet,"172 Lê Văn Việt, P. Tăng Nhơn Phú, Thành phố Thủ Đức, Thành phố Hồ Chí Minh",HCM,Ho Chi Minh,Thu Duc,"10.845906, 106.789173",,
40,134,AGI - 112 Nguyen Van Thoai,"112 Nguyễn Văn Thoại, Khóm 6, P. Châu Phú A, TP. Châu Đốc, An Giang",Mekong2,An Giang,Chau Doc,"10.7090622, 105.1176956",,
41,135,CTO - 196 Duong 3/2,"196 Đường 3 Tháng 2, P. Hưng Lợi, Cần Thơ",Mekong2,Can Tho,Ninh Kieu,"10.0200675, 105.7618777",,
42,136,HCM - 1649 Huynh Tan Phat,"1649 Huỳnh Tấn Phát, P. Phú Mỹ, Q.7, HCM",HCM,Ho Chi Minh,Quan 7,"10.7072238, 106.7374332",,
43,138,HCM - 97 Nguyen Thi Tu,"97 -101 Nguyễn Thị Tú, khu phố 3, Phường Bình Hưng Hòa B, Quận Bình Tân, Thành phố Hồ Chí Minh, Việt Nam",HCM,Ho Chi Minh,Binh Tan,"10.8158261, 106.5978868",,
44,139,BDU - 283 Nguyen An Ninh,"283 Nguyễn An Ninh, P. Dĩ An, Thành phố Dĩ An, Bình Dương",SouthEast2,Binh Duong,Di An,"10.9058127, 106.7681805",,
45,140,LAN - 2 Phan Van Mang,"2 Phan Văn Mảng, KP7, Bến Lức, Long An",Mekong1,Long An,Ben Luc,"10.635373, 106.4901771",,
46,141,HCM - 107/1 Le Van Khuong,"107/1 Lê Văn Khương, P. Thới An, Q.12, HCM",HCM,Ho Chi Minh,Quan 12,"10.8775315, 106.6487253",,
47,144,KHO - 2197 Dai Lo Hung Vuong,"2193 -2195 - 2197 Đại Lộ Hùng Vương, Phường Cam Lợi, Thành Phố Cam Ranh, Tỉnh Khánh Hòa, Việt Nam",Central1,Khanh Hoa,Cam Ranh,"11.9171529, 109.1450174",,
48,145,DON - 34 Khu Pho 4,"34 Khu Phố 4, Phường Long Bình, Biên Hòa, Đồng Nai",SouthEast2,Dong Nai,Bien Hoa,"10.9720363, 106.9097419",,
49,149,DON - 1-1/1 Hai Ba Trung,"1-1/1 đường Hai Bà Trưng, Khu Phước Hải, Thị Trấn Long Thành, Huyện Long Thành, Tỉnh Đồng Nai,",SouthEast2,Dong Nai,Long Thanh,"10.7806252, 106.9529137",,
50,154,HCM - 338 Ngo Gia Tu,"338 - 342 Ngô Gia Tự, P.4, Q.10, TP.HCM",HCM,Ho Chi Minh,Quan 10,"10.7627057, 106.6706641",,
51,155,HCM - Grand View Phu My Hung,"Grand View, Phú Mỹ Hưng, Nguyễn Đức Cảnh, P. Tân Phong, Q.7, TP.HCM",HCM,Ho Chi Minh,Quan 7,"10.721922, 106.7108408",,
52,156,HCM - 37A Nguyen Thi Nho,"37A-37B Nguyễn Thị Nhỏ, P2, Q6, Tp.HCM",HCM,Ho Chi Minh,Quan 6,"10.7513714, 106.6503077",,
53,157,BTR - 179 Nguyen Dinh Chieu,"179 Nguyễn Đình Chiểu, P.2, Tp. Bến Tre, Tỉnh Bến Tre",Mekong1,Ben Tre,Ben Tre,"10.235982, 106.3766576",,
54,158,CTO - 50B Hung Vuong,"50B Hùng Vương, Phường Thới Bình, Quận Ninh Kiều, Tp. Cần Thơ",Mekong2,Can Tho,Ninh Kieu,"10.0441312, 105.7785974",,
55,159,TGI - 124 Dinh Bo Linh,"124 Đinh Bộ Lĩnh, Phường 2, TP Mỹ Tho, Tỉnh Tiền Giang",Mekong1,Tien Giang,My Tho,"10.3550319, 106.3720469",,
56,161,HCM - 44/1D Pham Van Chieu,"44/1D Phạm Văn Chiêu Gò Vấp, HCM",HCM,Ho Chi Minh,Go Vap,"10.852028, 106.659834",,
57,163,HCM - 28-34 Nguyen Thi Thap,"28-30-32-34 Nguyễn Thị Thập, Phường Bình Thuận, Quận 7, Thành phố. Hồ Chí Minh",HCM,Ho Chi Minh,Quan 7,"10.7377594, 106.7280503",,
58,164,HCM - 165 Tran Nao,"165 Trần Não, Khu Phố 3, Phường An Khánh, Thành phố Thủ Đức, Thành phố Hồ Chí Minh",HCM,Ho Chi Minh,Thu Duc,"10.7905106, 106.730582",,
59,169,HCM - 178 Do Xuan Hop,"178 Đỗ Xuân Hợp, Phước Long A, Thành phố Thủ Đức, Thành phố Hồ Chí Minh",HCM,Ho Chi Minh,Thu Duc,"10.8283616, 106.7672239",,
60,170,ĐTH - 281-283 Nguyen Sinh Sac,"281-283 đường Nguyễn Sinh Sắc, P2. Thành phố Sa Đéc, Tỉnh Đồng Tháp",Mekong2,Dong Thap,Sa Dec,"10.2901837, 105.7641108",,
61,172,LAN - Tan An,"70 Hùng Vương , P.2, TP. Tân An, Long An",Mekong1,Long An,Tan An,"10.539334, 106.4043456",,
62,173,HCM - 130 Pham Huu Lau,"130 Đường Phạm Hữu Lầu, P. Phú Mỹ, Quận 7, TP. HCM",HCM,Ho Chi Minh,Quan 7,"10.7046835, 106.7321232",,
63,174,HCM - Sai Gon Pearl,"Sai Gòn Pearl, 92 Nguyễn Hữu Cảnh, P.22, Q. Bình Thạnh",HCM,Ho Chi Minh,Binh Thanh,"10.7909873, 106.7184276",,
64,178,KTU - 691 Phan Dinh Phung,"691 Phan Đình Phùng, P. Duy Tân, Tx Kon Tum",Highland3,Kon Tum,KonTum,"14.3686753, 108.0024734",,
65,179,HCM - 43A Nguyen Anh Thu,"43A Nguyễn Ảnh Thủ, Khu phố 2, Phường Hiệp Thành Quận 12, HCM",HCM,Ho Chi Minh,Quan 12,"10.877188, 106.6425401",,
66,180,HCM - 129-131 Le Trong Tan,"129 - 131 Lê Trọng Tấn, P.Sơn Kỳ, Q.Tân Phú, HCM",HCM,Ho Chi Minh,Tan Phu,"10.8058441, 106.6280712",,
67,181,HCM - 191 Hoang Van Thu,"191 Hoàng Văn Thụ, P.8, Q. Phú Nhuận, HCM",HCM,Ho Chi Minh,Phu Nhuan,"10.7995808, 106.6734708",,
68,182,NTH - 450A Thong Nhat,"450A Thống Nhất, P. Kinh Dinh, Tp. Phan Rang - Tháp Chàm, Tỉnh Ninh Thuận",Central1,Ninh Thuan,Thap Cham,"11.5649094, 108.9905137",,
69,183,BLI - 313-315 Tran Phu,"313 - 315 Đường Trần Phú, P.7, Tp. Bạc Liêu, Bạc Liêu",Mekong2,Bac Lieu,Bac Lieu,"9.29562, 105.7213605",,
70,184,LDO - 287 Phan Dinh Phung,"287 Phan Đình Phùng, phường 12, Tp. Đà Lạt, Lâm Đồng",Highland1,Lam Dong,Da Lat,"11.9479251, 108.4360519",,
71,186,DON- 07 Le Loi,"07 Lê Lợi, Phường Xuân An, Thành phố Long Khánh, Tỉnh Đồng Nai",SouthEast2,Dong Nai,Long Khanh,"10.9321238, 107.2441329",,
72,187,HCM - 788 Au Co,"788 Âu Cơ, phường 14, quận Tân Bình, Tp.HCM",HCM,Ho Chi Minh,Tan Binh,"10.790216, 106.6402893",,
73,190,BTR - 72B Dong Khoi,"72B Đại Lộ Đồng Khởi, Phú Tân, TP. Bến Tre, Bến Tre",Mekong1,Ben Tre,Ben Tre,"10.2502646, 106.3728312",,
74,191,DON - 129 Phung Hung,"Cửa hàng 129 Phùng Hưng, khu 4, ấp 8, huyện Long Thành, Đồng Nai",SouthEast2,Dong Nai,Long Thanh,"10.8490257, 106.9712377",,
75,192,HCM - 391 Ly Thai To,"391 Lý Thái Tổ, phường 9, Quận 10",HCM,Ho Chi Minh,Quan 10,"10.767697, 106.6696248",,
76,194,BDU - 426 Duong 30 thang 4,"426 đường 30 tháng 4, khu phố 2, phường Mỹ Phước, Thị xã Bến Cát, Tỉnh Bình Dương",SouthEast2,Binh Duong,Ben Cat,"11.1530548, 106.590722",,
77,195,BVT - 85 Nguyen Thanh Dang,"85 Nguyễn Thanh Đằng, P Phước Hiệp, Tp Bà Rịa, tỉnh Bà Rịa - Vũng Tàu",SouthEast2,Ba Ria - Vung Tau,Ba Ria,"10.4994995, 107.1727092",,
78,197,QBI - 32 Quang Trung,"32 Quang Trung, phường Hải Đình, Tp. Đồng Hới, tỉnh Quảng Bình",Central3,Quang Binh,Dong Hoi,"17.4638498, 106.623823",,
79,198,QBI - 309 Tran Hung Dao,"309 Trần Hưng Đạo, Đồng Hới, tỉnh Quảng Bình",Central3,Quang Binh,Dong Hoi,"17.4671047, 106.6047955",,
80,199,QNA - 63-65 Phan Chu Trinh,"63-65 Phan Chu Trinh, thị xã Tam Kỳ, tỉnh Quảng Nam",Central2,Quang Nam,Tam Ky,"15.571498, 108.4855192",,
81,200,HCM - 149 Phan Van Hon,"149 Phan Văn Hớn, ấp 7, Xã Xuân Thới Thượng, Huyện Hóc Môn, TP HCM",HCM,Ho Chi Minh,Hoc Mon,"10.8478861, 106.5901138",,
82,201,VPH - 147 Hai Ba Trung,"Số Nhà 147 Đường Hai Bà Trưng, Phường Hùng Vương, Thành phố Phúc Yên, Tỉnh Vĩnh Phúc, Việt Nam",North,Vinh Phuc,Phuc Yen,"21.2310693, 105.7073606",,
83,202,KGI - 127 Nguyen Van Cu,"127 Nguyễn Văn Cừ, Khu Phố 8, thị trấn An Thới, Phú Quốc, Kiên Giang",Mekong2,Kien Giang,Phu Quoc,"10.0211065, 104.0173358",,
84,203,HUE - 1 Ba Trieu,"01 Bà Triệu, Phường Xuân Phú, TP. Huế, Tỉnh Thừa Thiên Huế",Central3,Hue,Hue,"16.4700366, 107.5993135",,
85,204,BVT - 559-563 Rach Dua,"559-561-563 đường 30/4, P. Rạch Dừa, Tp. Vũng Tàu, tỉnh Bà Rịa - Vũng Tàu",SouthEast2,Ba Ria - Vung Tau,Vung Tau,"10.3989802, 107.1141492",,
86,205,LDO - 827-829 Hung Vuong,"827 - 829 Hùng Vương, thị trấn Di Linh, Lâm Đồng.",Highland1,Lam Dong,Di Linh,"11.5931315, 108.0786205",,
87,207,HCM - 333-335 Duong So 7,"333 - 335 , đường số 7 , phường Bình Trị Đông B, quận Bình Tân, thành phố Hồ Chí Minh",HCM,Ho Chi Minh,Binh Tan,"10.7516031, 106.6111493",,
88,208,DON - G1 Dong Khoi,"G1, đường Đồng Khởi, phường Tân Hiệp, thành phố Biên Hòa, tỉnh Đồng Nai.",SouthEast2,Dong Nai,Bien Hoa,"10.956768, 106.8611827",,
89,209,HCM - 902 Le Van Luong,"902 Lê Văn Lương, xã Phước Kiểng, Huyện Nhà Bè, TP.HCM",HCM,Ho Chi Minh,Nha Be,"10.7151798, 106.7003841",,
90,211,CTO - 1209 Quoc Lo 91,"1209 Đường Quốc Lộ 91, Phường Châu Văn Liêm, Quận Ô Môn, TP Cần Thơ.",Mekong2,Can Tho,O Mon,"10.1091081, 105.6217508",,
91,212,BDU - 01 Pasteur,"Số 01 Pasteur , Khu Phố Chợ, Thị Trấn Lái Thiêu, Thành phố Thuận An, Bình Dương",SouthEast2,Binh Duong,Thuan An,"10.7782086, 106.6987449",,
92,213,BDI - 256 Ngo Gia Tu,"256 Ngô Gia Tự, phường Bình Định, thị xã An Nhơn, Tỉnh Bình Định",Central2,Binh Dinh,An Nhon,"13.8890913, 109.113324",,
93,214,TNI - 180 Quoc Lo 22,"180 Quốc Lộ 22, khu phố Lộc Du, thị trấn Trảng Bảng, tỉnh Tây Ninh",SouthEast1,Tay Ninh,Trang Bang,"11.0327475, 106.3550138",,
94,215,HCM - 755 Le Trong Tan,"751-753-755 Đường Lê Trọng Tấn, Phường Bình Hưng Hòa, Quận Bình Tân, Thành phố Hồ Chí Minh",HCM,Ho Chi Minh,Binh Tan,"10.8156373, 106.6028574",,
95,216,HCM - 829-829A Ha Huy Giap,"829 - 829A Hà Huy Giáp, phường Thạnh Xuân, quận 12, TPHCM",HCM,Ho Chi Minh,Quan 12,"10.8913949, 106.6861264",,
96,218,BTH - 207-209 Thong Nhat,"207 - 209 Thống Nhất, dân phố 14, thị trấn Phan Rí Cửa, huyện Tuy Phong, tỉnh Bình Thuận.",Central1,Binh Thuan,Tuy Phong,"11.1735786, 108.5659333",,
97,220,AGI - 110 Ton Duc Thang,"110 Tôn Đức Thắng, P.Long Thạnh, TX. Tân Châu, Tỉnh An Giang",Mekong2,An Giang,Tan Chau,"10.7016585, 105.1334034",,
98,221,BPH - 269 Nguyen Hue,"269 Nguyễn Huệ, KP, Bình Phú, P. An Lộc, Thị xã Bình Long, tỉnh Bình Phước",SouthEast2,Binh Phuoc,Binh Long,"11.6544637, 106.6088956",,
99,222,BDU - 119-121 An Binh,"119-121 đường An Bình, phường An Bình, Thành phố Dĩ An, tỉnh Bình Dương.",SouthEast2,Binh Duong,Di An,"10.8697515, 106.7566607",,
100,223,HCM - 213-215 Tan Huong,"213 - 215 Tân Hương, phường Tân Quý, quận Tân Phú, TPHCM",HCM,Ho Chi Minh,Tan Phu,"10.7898802, 106.6227424",,
101,225,HCM - 89/2-91 Phan Huy Ich,"89/2 -91 Phan Huy Ích, P.15, Quận Tân Bình, Tp HCM",HCM,Ho Chi Minh,Tan Binh,"10.8282887, 106.631918",,
102,227,BDU - 26 Duong DT 746,"Đất số 26 Đường DT746, Khu phố Khánh Thạnh, Phường Tân Phước Khánh, Thị Xã Tân uyên, Bình Dương",SouthEast2,Binh Duong,Tan Uyen,"11.0057223, 106.7202274",,
103,229,BVT - 236-238 Hung Vuong,"Số 236-238 đường Hùng Vương, thị trấn Ngãi Giao, huyện Châu Đức, tỉnh Bà Rịa Vũng Tàu",SouthEast2,Ba Ria - Vung Tau,Chau Duc,"10.6467165, 107.2459296",,
104,230,CTO - Quoc Lo 91,"Đường QL91, KV Long Thạnh 1, phường Thốt Nốt, quận Thốt Nốt, Thành Phố Cần Thơ",Mekong2,Can Tho,Thot Not,"10.2693584, 105.5313184",,
105,231,AGI - 315/4 Tran Hung Dao,"315/4 Trần Hưng Đạo, Phường Mỹ Long, TP Long Xuyên, An Giang.",Mekong2,An Giang,Long Xuyen,"10.3774963, 105.4401415",,
106,232,BDU - 39 Doc Lap,"39 Độc Lập, Kp1, Thị Trấn Phước Vĩnh, Phú Giáo, Bình Dương",SouthEast2,Binh Duong,Phu Giao,"11.28945, 106.79221",,
107,233,LDO - 494 Quoc Lo 20,"494 Quốc lộ 20, thị trấn Liên Nghĩa, huyện Đức Trọng, tỉnh Lâm Đồng",Highland1,Lam Dong,Duc Trong,"11.7295682, 108.371451",,
108,234,HCM - 1187 Nguyen Duy Trinh,"1187 Nguyễn Duy Trinh, P. Long Trường, Thành phố Thủ Đức, Thành phố Hồ Chí Minh",HCM,Ho Chi Minh,Thu Duc,"10.8027458, 106.8129291",,
109,237,TNG - 662 Pham Van Dong,"662 - 664 Phạm Văn Đồng, phường Ba Hàng. TX. Phổ Yên, tỉnh Thái Nguyên",North,Thai Nguyen,Pho Yen,"21.4184275, 105.8702578",,
110,238,HCM - 972-974-976 Nguyen Van Qua,"972-974-976 Nguyễn Văn Quá, phường Đông Hưng Thuận, quận 12, TPHCM",HCM,Ho Chi Minh,Quan 12,"10.8537782, 106.6381099",,
111,239,CTO - 8A CMT8,"8A Đường CMT8, Phường An Thới, Quận Bình Thủy, TP.Cần Thơ",Mekong2,Can Tho,Binh Thuy,"10.060738, 105.7645014",,
112,240,TGI - 364-365 Nguyen Hue,"364-365 Nguyễn Huệ, KP 3, P.2, TX. Gò Công, Tiền Giang",Mekong1,Tien Giang,Go Cong,"10.3645799, 106.6781219",,
113,242,DON - DT 768,"DT768, ấp 1, xã Thạnh Phú, huyện Vĩnh Cửu, tỉnh Đồng Nai.",SouthEast2,Dong Nai,Vinh Cuu,"11.0066401, 106.8408898",,
114,243,AGI - 200 Tinh Lo 942,"Số 200 Đường Tỉnh Lộ 942, Thị trấn Mỹ Luông, Huyện Chợ Mới, Tỉnh An Giang",Mekong2,An Giang,Cho Moi,"10.5084846, 105.4869198",,
115,244,BDU - DT 741,"DT741, khu phố Phú Nghị. Hòa Lợi, Thị Xã Bến Cát, Bình Dương",SouthEast2,Binh Duong,Ben Cat,"11.0755503, 106.6666944",,
116,246,BDU - E3/1 KP Binh Thuan 2,"E3/1 Kp Bình Thuận 2, KDC Thuận Giao,Thành phố Thuận An, Bình Dương",SouthEast2,Binh Duong,Thuan An,"10.9366977, 106.7097356",,
117,247,HCM - 655 Le Van Viet,"655 Lê Văn Việt, Khu Phố 6, P.Tân Phú, Q.9, TPHCM.",HCM,Ho Chi Minh,Thu Duc,"10.8498357, 106.8115003",,
118,249,CMA - 288 Quoc Lo 1A,"Số 288 đường QL1A, Thị trấn Cái Nước, Huyện Cái Nước , Tỉnh Cà Mau",Mekong2,Ca Mau,Cai Nuoc,"8.943645799999999, 105.0108622",,
119,250,BLI - 160-162 Quoc Lo 1A,"160-162 , Đường QL1A , Phường Hộ Phòng , TX Giá Rai , Tỉnh Bạc Liêu",Mekong2,Bac Lieu,Gia Rai,"9.2280534, 105.4194036",,
120,251,STR - 31-33 Hai Ba Trung,"31-33 , đường Hai Bà Trưng, phường 1 , thành phố Sóc Trăng, tỉnh Sóc Trăng.",Mekong2,Soc Trang,Soc Trang,"9.6035916, 105.9741877",,
121,252,BDI - 9 Vo Nguyen Giap,"Cửa hàng số 9 Võ Nguyên Giáp, P. Đống Đa, Tp. Quy Nhơn, Bình Định",Central2,Binh Dinh,Qui Nhon,"13.7834319, 109.2194984",,
122,254,NTH - 602-604-606 Duong 21/8,"602-604-606 đường 21/8 TP Phan Rang, Tháp Chàm, Tỉnh Ninh Thuận.",Central1,Ninh Thuan,Thap Cham,"11.6017452, 108.9464857",,
123,255,BDU - 27/20A Nguyen Trai,"27/20A Nguyễn Trãi, Kp Thống Nhất 1, P Dĩ An, Thành phố Dĩ An, Bình Dương.",SouthEast2,Binh Duong,Di An,"10.9033306, 106.7515723",,
124,256,HCM - 311A Thoai Ngoc Hau,"311A Thoại Ngọc Hầu, P. Tân Hiệp, Tân Phú, TPHCM",HCM,Ho Chi Minh,Tan Phu,"10.7769339, 106.6279586",,
125,257,HCM - 202 Kinh Duong Vuong,"202 Kinh Dương Vương, KP 4, Phường An Lạc A, Quận Bình Tân, TP HCM",HCM,Ho Chi Minh,Binh Tan,"10.7454474, 106.6230862",,
126,259,LAN - 167 Quoc Lo 62,"3 kios nhà số 167 Quốc lộ 62, Phường 6, Thành phố Tân An, Tỉnh Long An",Mekong1,Long An,Tan An,"10.5436736, 106.3949053",,
127,261,PYN - 287B Tran Hung Dao,"287B Trần Hưng Đạo, P.4, Tp. Tuy Hòa, Phú Yên",Central2,Phu Yen,Tuy Hoa,"13.0870485, 109.3094384",,
128,263,NTH - 414-418 Ngo Gia Tu,"414-418 Ngô Gia Tự, Tp. Phan Rang, Tháp Chàm, Ninh Thuận",Central1,Ninh Thuan,Thap Cham,"11.5580921, 108.9929166",,
129,264,HNI - 933 La Thanh,"933 Đê La Thành, P. Ngọc Khánh, Quận Ba Đình, TP. Hà Nội",North,Ha Noi,Ba Dinh,"21.0269875, 105.8095799",,
130,266,VLO - Nguyen Van Thanh,"Đường Nguyễn Văn Thảnh, Tổ 24, Khóm 5, Phường Thành Phước, Thị Xã Bình Minh, Tỉnh Vĩnh Long",Mekong2,Vinh Long,Binh Minh,"10.0612013, 105.8000105",,
131,267,AGI - 126 Tran Phu,"Số 126, đường Trần Phú, TT Phú Hòa,huyện Thoại Sơn ,tỉnh An Giang",Mekong2,An Giang,Thoai Son,"10.3599285, 105.376598",,
132,268,CMA - 158 Quoc Lo 1A,"158 , đường QL1A ,xã Tắc Vân, thành phố Cà Mau tỉnh Cà Mau",Mekong2,Ca Mau,Ca Mau,"9.168101499999999, 105.2688421",,
133,269,STR - 79-81 Hung Vuong,"79-81, đường Hùng Vương, phường 6 , thành phố Sóc Trăng tỉnh Sóc Trăng",Mekong2,Soc Trang,Soc Trang,"9.6120524, 105.9690854",,
134,270,BDU - 1111B Ap Vinh Phuoc,"1111B, ấp Vĩnh Phước tổ 11, xã Thái Hòa, Tân Uyên, Bình Dương",SouthEast2,Binh Duong,Tan Uyen,"10.9668166, 106.7340408",,
135,271,DON - 121A-123 CMT8,"121A - 123 CMT8, TP. Biên Hoà, Tỉnh Đồng Nai.",SouthEast2,Dong Nai,Bien Hoa,"10.9499162, 106.8127187",,
136,273,KHO - 2E-2F Duong 2/4,"2E-2F đường 2 tháng 4, phường Vĩnh Thạnh, Tp Nha Trang, Tỉnh Khánh Hoà",Central1,Khanh Hoa,Nha Trang,"12.3042219, 109.1862597",,
137,275,HCM - 406C Ma Lo,"Số 406C Mã Lò, Khu phố 22, Phường Bình Hưng Hòa A, Quận Bình Tân, Thành phố Hồ Chí Minh",HCM,Ho Chi Minh,Binh Tan,"10.77973, 106.60006",,
138,276,KHO - 310-312 Thong Nhat,"310 - 312 Thống Nhất, P. Phương Sơn, Tp. Nha Trang, Khánh Hòa",Central1,Khanh Hoa,Nha Trang,"12.2492119, 109.1822164",,
139,278,BDU - Duong D10,"đường D10, phường Thới Hoà, thị xã Bến Cát, tỉnh Bình Dương",SouthEast2,Binh Duong,Ben Cat,"11.1256701, 106.6066207",,
140,279,KGI - 13-14 Lo L04 Tran Quang Khai,"13 - 14, lô L04 , đường Trần Quang Khải, phường An Hoà, thành phố Rạch Giá, tỉnh Kiên Giang",Mekong2,Kien Giang,Rach Gia,"9.9823318, 105.0992367",,
141,280,KGI - 02 Tran Phu,"Số 02 , đường Trần Phú, khu phố Lý Thường Kiệt, phường Vĩnh Thanh, thành phố Rạch Giá, Tỉnh Kiên Giang",Mekong2,Kien Giang,Rach Gia,"10.016677, 105.0804429",,
142,281,BTH - 45 Tran Hung Dao,"45 Trần Hưng Đạo, P. Phú Thuỷ, Tp. Phan Thiết.",Central1,Binh Thuan,Phan Thiet,"10.9403837, 108.1039343",,
143,282,BTH - 158 Thong Nhat,"158 Thống Nhất, P. Tân Thiện, Thị xã Lagi, Bình Thuận.",Central1,Binh Thuan,Lagi,"10.6637098, 107.7680495",,
144,283,KTU - 263 Tran Hung Dao,"263 Trần Hưng Đạo, P. Quyết Thắng, TP Kon Tum, Tỉnh Kon Tum",Highland3,Kon Tum,KonTum,"14.3497653, 108.0052953",,
145,285,ĐTH - 51 Nguyen Hue,"51 Nguyễn Huệ, Thị Trấn Sa Rài, huyện Tân Hồng, tỉnh Đồng Tháp",Mekong2,Dong Thap,Tan Hong,"10.8798538, 105.4512516",,
146,286,ĐTH - 308 Duong 3/2,"308 Đường 3/2, Khóm Bình Thạnh 1, Thị Trấn Lấp Vò, Huyện Lấp Vò, Tỉnh Đồng Tháp.",Mekong2,Dong Thap,Lap Vo,"10.3577289, 105.5210607",,
147,287,BVT - 1107-1109 Duong 30/4,"1107 - 1109 đường 30/4, phường 11, TP Vũng Tàu, tỉnh Bà Rịa Vũng Tàu",SouthEast2,Ba Ria - Vung Tau,Vung Tau,"10.4111977, 107.1357043",,
148,289,DON - 2551 Ly Thai To,"2551 đường Lý Thái Tổ, Ấp Phước Lý, xã Đại Phước, huyện Nhơn Trạch, Đồng Nai",SouthEast2,Dong Nai,Nhon Trach,"10.7330894, 106.8202921",,
149,290,DON - 194 Tran Phu,"194 Trần Phú, P. Xuân An, Long Khánh, Đồng Nai",SouthEast2,Dong Nai,Long Khanh,"10.9339729, 107.2528559",,
150,291,TVI - 62 Dien Bien Phu,"62 Điện Biên Phủ, Khóm 3, Phường 2, Thành phố Trà Vinh, Tỉnh Trà Vinh",Mekong2,Tra Vinh,Tra Vinh,"9.933351499999999, 106.3412061",,
151,292,BPH - 224 DT741,"224 Đường DT 741 Ấp Chợ, Xã Tân Tiến, Huyện Đồng Phú, Tỉnh Bình Phước",SouthEast2,Binh Phuoc,Dong Phu,"11.4250684, 106.8571993",,
152,296,DON - 49F Duong 30/4,"49F đường 30/4, thị trấn Trảng Bom, huyện Trảng Bom, tỉnh Đồng Nai",SouthEast2,Dong Nai,Trang Bom,"11.004833, 107.1144996",,
153,297,HCM - 911A-911B Nguyen Anh Thu,"911A – 911B đường Nguyễn Ảnh Thủ, P.Tân Chánh Hiệp, Quận 12, Tp.Hồ Chí Minh",HCM,Ho Chi Minh,Quan 12,"10.8711904, 106.6196052",,
154,299,NBI - 244 Quang Trung,"244 Quang Trung, Phường Bắc Sơn, Thành phố Tam Điệp, Tỉnh Ninh Bình",North,Ninh Binh,Tam Diep,"20.158144, 105.9214993",,
155,300,HCM - 121A Nguyen Duy Trinh,"121A Nguyễn Duy Trinh, KP1, P. Bình Trưng Tây, Thành phố Thủ Đức, Thành phố Hồ Chí Minh",HCM,Ho Chi Minh,Thu Duc,"10.78842, 106.75872",,
156,301,LAN - 01 Quoc Lo 50,"Số 1- 3 Quốc lộ 50, Ấp Hoà Thuận 1,Xã Trường Bình, Huyện Cần Giuộc, Tỉnh Long An,Việt Nam",Mekong1,Long An,Can Giuoc,"10.6006962, 106.6650926",,
157,302,BLI - 24-26 Tran Phu,"số 24-26, đường Trần Phú, Phường 3, TP bạc Liêu, Tỉnh Bạc Liêu.",Mekong2,Bac Lieu,Bac Lieu,"9.2876221, 105.7223991",,
158,305,ĐTH - 76 Pham Huu Lau,"Số 76, đường Phạm Hữu Lầu, phường 4, TP Cao Lãnh, Tỉnh Đồng Tháp",Mekong2,Dong Thap,Cao Lanh,"10.45135, 105.6308369",,
159,306,ĐTH - 131 Hung Vuong,"131 Hùng Vương, Thị Trấn Mỹ An, Tỉnh Đồng Tháp",Mekong2,Dong Thap,Thap Muoi,"10.518361, 105.8434798",,
160,307,BPH - Quoc Lo 14,"QL14, Thị trấn Đức Phong, huyện Bù Đăng, Bình Phước",SouthEast2,Binh Phuoc,Bu Dang,"11.8117111, 107.238091",,
161,309,HCM - 39 Phan Van Hon,"39 Phan Văn Hớn, Ấp 4, Xuân Thới Thượng, Hóc Môn, TPHCM",HCM,Ho Chi Minh,Hoc Mon,"10.8626044, 106.5709984",,
162,312,LAN - 216 Do Tuong Phong,"216 Đỗ Tường Phong, Khóm 1, Thị Trấn Tầm Vu, H. Châu Thành, Long An",Mekong1,Long An,Chau Thanh,"10.446994, 106.4678489",,
163,313,LAN - 10 Phan Chu Trinh,"Số 10 Phan Chu Trinh, Khu phố 1, Phường 1, Thị Xã Kiến Tường, Tỉnh Long An",Mekong1,Long An,Kien Tuong,"10.7786458, 105.9372485",,
164,315,DON - 1435 Quoc Lo 1A,"1435 QL 1A, Ấp Trà Cổ, H. Trảng Bom, Đồng Nai",SouthEast2,Dong Nai,Trang Bom,"10.9481006, 106.9861807",,
165,318,HCM - 3/1A Nguyen Van Luong,"3/1A Nguyễn Văn Lượng, phường 16 quận Gò vấp, tp Hcm",HCM,Ho Chi Minh,Go Vap,"10.838767, 106.6655",,
166,319,BNI - 30-32 Pho Cho,"30-32 Phố Chờ thị trấn Chờ, huyện Yên Phong, tỉnh Bắc Ninh.",North,Bac Ninh,Yen Phong,"21.1978889, 105.9494248",,
167,320,DON - 22 Ap 114,"Số 22, ấp 114, thị trấn Định Quán, huyện Định Quán, tỉnh Đồng Nai",SouthEast2,Dong Nai,Dinh Quan,"11.1937645, 107.3434916",,
168,321,HCM - 158 Quoc Lo 22,"158 Quốc Lộ 22, Ấp Đình, Xã Tân Phú Trung, Củ Chi, TPHCM",HCM,Ho Chi Minh,Cu Chi,"10.8722864, 106.5953996",,
169,322,BTH - 12 Co Giang,"12, đường Cô Giang, phường Phước Hội, thị xã La Gi, tỉnh Bình Thuận",Central1,Binh Thuan,Lagi,"10.6641818, 107.7741051",,
170,323,HCM - 304-306 Huynh Tan Phat,"304-306 Huỳnh Tấn Phát, Phường Tân Thuận Tây, Quận 7, TPHCM",HCM,Ho Chi Minh,Quan 7,"10.751381, 106.7284769",,
171,324,HCM - 326 Le Van Luong,"326 Lê Văn Lương, Phường Tân Hưng, Quận 7, TPHCM.",HCM,Ho Chi Minh,Quan 7,"10.7410878, 106.7035851",,
172,326,BVT - 2181 Quoc Lo 51,"2181-2183 Quốc lộ 51, thôn Tân Phú, thị trấn Phú Mỹ, huyện Tân Thành, tỉnh Bà Rịa - Vũng Tàu.",SouthEast2,Ba Ria - Vung Tau,Tan Thanh,"10.6688927, 107.0324154",,
173,328,HCM - 484 Luy Ban Bich,"484 Lũy Bán Bích, phường Hòa Thạnh, quận Tân Phú",HCM,Ho Chi Minh,Tan Phu,"10.7805421, 106.6363119",,
174,329,DON - 296-297 Quoc Lo 51,"296 - 297 Quốc Lộ 51, KP Long Khánh 3, Phường Tam Phước, Thành phố Biên Hòa, Tỉnh Đồng Nai",SouthEast2,Dong Nai,Bien Hoa,"10.8535091, 106.928083",,
175,330,TGI - 68 Hung Vuong,"68 Hùng Vương, TP Mỹ Tho, Tiền Giang.",Mekong1,Tien Giang,My Tho,"10.3649526, 106.3649252",,
176,331,DON - 845 Bui Van Hoa,"845 đường Bùi Văn Hòa khu phố 7, phường Long Bình, TP. Biên Hòa, Đồng Nai",SouthEast2,Dong Nai,Bien Hoa,"10.9141438, 106.8865067",,
177,332,BTH - Khu Dan Cu A2,"Khu dân cư A2, Thị Trấn Liên Hương, Huyện Tuy Phong, Tỉnh Bình Thuận.",Central1,Binh Thuan,Tuy Phong,"11.2172009, 108.7185184",,
178,333,QTR - 84 Quoc Lo 9,"84, Quốc lộ 9, Khu phố 7, Phường 1, TP. Đông Hà, Tỉnh Quảng Trị.",Central3,Quang Tri,Dong Ha,"16.817461, 107.0864428",,
179,334,PYN - 60 Nguyen Thai Hoc,"60 Nguyễn Thái Học, p5, tp Tuy Hòa, Phú Yên",Central2,Phu Yen,Tuy Hoa,"13.0902172, 109.3030218",,
180,335,QNA - 550 Hai Ba Trung,"550 Hai Bà Trưng, Phường Cẩm Phô, Thành phố Hội An, Tỉnh Quảng Nam.",Central2,Quang Nam,Hoi An,"15.8842615, 108.3254383",,
181,336,KGI - 318-320 Nguyen Trung Truc,"318-320 Nguyễn Trung Trực , phường Vĩnh Lạc, tp Rạch Giá, Tỉnh Kiên Giang",Mekong2,Kien Giang,Rach Gia,"9.9990905, 105.0907823",,
182,341,HCM - 6C-10Bis Truong Chinh,"6C-10bis Trường Chinh, Tân Hưng Thuận, Q12",HCM,Ho Chi Minh,Quan 12,"10.8337862, 106.6208943",,
183,342,KHO - 70 Le Hong Phong,"70 đường Lê Hồng Phong , phường Phước Hải, thành phố Nha Trang, Khánh Hòa",Central1,Khanh Hoa,Nha Trang,"12.2443376, 109.1819497",,
184,344,HCM - D12/37 Dinh Duc Thien,"D12/37 đường Đinh Đức Thiện, ấp 4, xã Bình Chánh, huyện Bình Chánh, TPHCM",HCM,Ho Chi Minh,Binh Chanh,"10.6624102, 106.5762914",,
185,345,DNA - 42 Ong Ich Duong,"42 , đường Ông Ích Đường , phường Hòa Thọ Đông, quận Cẩm Lệ, thành phố Đà Nẵng",Central2,Da Nang,Cam Le,"16.0166544, 108.2045065",,
186,346,DON - 1912 Quoc Lo 51,"1912 Quốc lộ 51, tổ 1, Ấp 1C, Phước Thái, Long Thành, Đồng Nai",SouthEast2,Dong Nai,Long Thanh,"10.6774007, 107.0280117",,
187,347,HCM - 12/12 Nguyen Binh,"12/12 Nguyễn Bình, Nhà Bè, Tp Hcm",HCM,Ho Chi Minh,Nha Be,"10.6790429, 106.7520409",,
188,348,KGI - 178-180 Mac Thien Tich,"178-180 Mạc Thiên Tích, P. Pháo Đài, Tx Hà Tiên, Tỉnh Kiên Giang",Mekong2,Kien Giang,Ha Tien,"10.3787704, 104.4831814",,
189,349,HCM - E9/9 Nguyen Huu Tri,"E9/9 Nguyễn Hữu Trí, khu phố 5, Tân Túc, Bình Chánh, TPHCM",HCM,Ho Chi Minh,Binh Chanh,"10.6962159, 106.5942396",,
190,350,TGI - Ap Long Thanh,"Ấp Long Thạnh, xã Long Bình Điền, Huyện Chợ Gạo, Tiền Giang",Mekong1,Tien Giang,Cho Gao,"10.6382894, 106.6007108",,
191,351,KHO - 08 Phan Boi Chau,"08 Phan Bội Châu, tổ DP Phan Bội Châu 2, thị trấn Diên Khánh, huyện Diên Khánh, Khánh Hòa",Central1,Khanh Hoa,Dien Khanh,"12.2572461, 109.1008357",,
192,353,BDI - 394 Nguyen Thai Hoc,"394 Nguyễn Thái Học, phường Quang Trung, thành phố Quy Nhơn, tỉnh Bình Định",Central2,Binh Dinh,Qui Nhon,"13.7638252, 109.2137992",,
193,354,QNA - 179 Dien Bien Phu,"179 Điện Biên Phủ, Khối phố Long Xuyên 1, Thị Trấn Nam Phước, Huyện Duy Xuyên, Tỉnh Quảng Nam",Central2,Quang Nam,Duy Xuyen,"15.8196874, 108.2606686",,
194,356,DON - 32A Hung Vuong,"Số 32A đường Hùng Vương, Khu phố 2, Thị trấn Trảng Bom, huyện Trảng Bom, tỉnh Đồng Nai",SouthEast2,Dong Nai,Trang Bom,"10.9562209, 107.0115236",,
195,357,GLA - 807D Hung Vuong,"807D Đường Hùng Vương, Tổ dân phố 7, Thị Trấn Chư Sê, Huyện Chư Sê, Tỉnh Gia Lai",Highland3,Gia Lai,Chu Se,"13.6945212, 108.0772563",,
196,358,GLA - 18-20 Nguyen Tat Thanh,"18-20 Nguyễn Tất Thành, phường Hoa Lư, thành phố Pleiku, tỉnh Gia Lai",Highland3,Gia Lai,Pleiku,"13.9835093, 108.0083985",,
197,359,AGI - 956-958 Tran Hung Dao,"956-958 Trần Hưng Đạo, khóm Bình Khánh 2, P.Bình Khánh, Tp.Long Xuyên, An Giang.",Mekong2,An Giang,Long Xuyen,"10.3931729, 105.4263512",,
198,360,AGI - Le Loi,"Lê Lợi, P.Châu Phú B, Tp.Châu Đốc, An Giang.",Mekong2,An Giang,Chau Doc,"10.7071729, 105.1265106",,
199,361,HCM - B6/190 Quoc Lo 50,"B6/190 QL50, Ấp 2, xã Phong Phú, huyện Bình Chánh, TPHCM",HCM,Ho Chi Minh,Binh Chanh,"10.6648229, 106.6514253",,
200,362,HCM - 827 Au Co,"827 Âu Cơ, phường Tân Thành, quận Tân Phú, TPHCM",HCM,Ho Chi Minh,Tan Phu,"10.7946872, 106.6383614",,
201,363,BDU - 272 Dai Lo Binh Duong,"272 tổ 3 khu 2, Đại Lộ Bình Dương, phường Phú Hòa, TP. Thủ Dầu Một, Tỉnh Bình Dương.",SouthEast2,Binh Duong,Thu Dau Mot,"10.9638024, 106.6889421",,
202,365,HCM - 266A Tinh Lo 15,"266A Tỉnh Lộ 15, tổ 5, ấp 11, xã Tân Thạnh Đông, Củ Chi, TPHCM",HCM,Ho Chi Minh,Cu Chi,"10.947261, 106.606163",,
203,366,LDO - 861-863 Tran Phu,"861-863 Trần Phú, Tp Bảo Lộc, Lâm Đồng",Highland1,Lam Dong,Bao Loc,"11.5412668, 107.8000563",,
204,367,LDO - 796-798 Hung Vuong,"796-798 Hùng Vương, thị trấn Đinh Văn, huyện Lâm Hà, tỉnh Lâm Đồng",Highland1,Lam Dong,Lam Ha,"11.7872092, 108.2476416",,
205,368,DLK - 514 Giai Phong,"514 đường Giải Phóng, thị trấn Ea Drăng, huyện Ea Hleo, tỉnh Đắk Lắk",Highland2,Dak Lak,Ea H'leo,"13.2028834, 108.2065236",,
206,369,CMA - 68 Tran Hung Dao,"68 Trần Hưng Đạo, khóm 7, phường 5, tp Cà Mau",Mekong2,Ca Mau,Ca Mau,"9.184987399999999, 105.1635747",,
207,370,KGI - DT 933,"DT 933, khu phố 6, Thị Trấn Giồng Riềng, Huyện Giồng Riềng, Tỉnh Kiên Giang .",Mekong2,Kien Giang,Giong Rieng,"9.898483700000002, 105.2955575",,
208,371,HCM - 657 Nguyen Xien,"657 Nguyễn Xiển, Phường Long Thạnh Mỹ, Thành phố Thủ Đức, Thành phố Hồ Chí Minh",HCM,Ho Chi Minh,Thu Duc,"10.8429331, 106.8286117",,
209,372,HCM - 564A Huong Lo 2,"564A Hương Lộ 2, KP6, P.Bình Trị Đông, Bình Tân",HCM,Ho Chi Minh,Binh Tan,"10.7698011, 106.6132582",,
210,373,TGI - 2/4 Quốc Lộ 1A,"2/4 Quốc Lộ 1A, Ấp Rẫy, Thị Trấn Tân Hiệp, Huyện Châu Thành, Tỉnh Tiền Giang",Mekong1,Tien Giang,Chau Thanh,"10.4501159, 106.3432735",,
211,374,HCM - 326A/13 An Phu Tay,"326A/13 An Phú Tây - Hưng Long, ấp 1, xã An Phú Tây, huyện Bình Chánh, TPHCM",HCM,Ho Chi Minh,Binh Chanh,"10.6853752, 106.6022995",,
212,375,CMA - Duong Thi Cam Van,"Dương Thị Cẩm Vân, Khóm 4, Thị trấn Đầm Dơi, Huyện Đầm Dơi, Tỉnh Cà Mau.",Mekong2,Ca Mau,Dam Doi,"8.9978959, 105.1986784",,
213,376,TGI - 57/8 Le Thi Hong Gam,"57/8 đường Lê Thị Hồng Gấm, phường 6, thành phố Mỹ Tho, tỉnh Tiền Giang.",Mekong1,Tien Giang,My Tho,"10.3504937, 106.3432273",,
214,377,LAN - 11 Nguyen Trung Truc,"11 Nguyễn Trung Trực, thị trấn Thạnh Hóa, Huyện Thạnh Hóa, Tỉnh Long An.",Mekong1,Long An,Thanh Hoa,"10.6576177, 106.1817556",,
215,378,KHO - Lo 06-07 Duong 23/10,"Lô 06-07 Đường 23/10, thôn Vĩnh Điềm Trung, xã Vĩnh Hiệp, Tp. Nha Trang, Tỉnh Khánh Hòa",Central1,Khanh Hoa,Nha Trang,"12.2561755, 109.1563603",,
216,379,CTO - 8/8 Le Hong Phong,"8/8 Lê Hồng Phong, P.Trà Nóc, Q.Bình Thuỷ, TP Cần Thơ",Mekong2,Can Tho,Binh Thuy,"10.1004035, 105.7081298",,
217,381,LAN - 450 Hung Vuong,"450 Hùng Vương, phường 3, TP Tân An, Tỉnh Long An",Mekong1,Long An,Tan An,"10.5308485, 106.4169966",,
218,382,BTR - 376 DT883,"376 DT883, ấp Quới Hòa Đông, xã Quới Sơn, huyện Châu Thành, tỉnh Bến Tre.",Mekong1,Ben Tre,Chau Thanh,"10.3045624, 106.3912719",,
219,383,HCM - 66/7 Quoc Lo 22,"66/7 QL22, Ấp Dân Thắng 1, xã Tân Thới Nhì, Hóc Môn, Tp Hcm",HCM,Ho Chi Minh,Hoc Mon,"10.8885505, 106.5836516",,
220,384,DNK - 45 Nguyen Tat Thanh,"45 Nguyễn Tất Thành, TT. Kiến Đức, H. Đăk Rlấp, Đăk Nông",Highland2,Dak Nong,Dak R'lap,"11.9951319, 107.5115356",,
221,385,LAN - 277-278 ĐT835,"277-278 ĐT835 ấp 4 , xã Phước Lợi, huyện Bến Lức ,tỉnh Long An.",Mekong1,Long An,Ben Luc,"10.6376721, 106.5352985",,
222,386,CMA - 141B Nguyen Tat Thanh,"141B Nguyễn Tất Thành, Khóm 1, Phường 8, TP Cà Mau",Mekong2,Ca Mau,Ca Mau,"9.165631699999999, 105.1443768",,
223,387,TNI - 308 Tinh Lo 782,"308 Tỉnh Lộ 782, tổ 4, ấp Phước Đức, xã Phước Đông, huyện Gò Dầu, tỉnh Tây Ninh",SouthEast1,Tay Ninh,Go Dau,"11.1212665, 106.3242041",,
224,389,HCM - 668 Le Duc Tho,"668 Lê Đức Thọ, P.15, Q.Gò Vấp, thành phố HCM",HCM,Ho Chi Minh,Go Vap,"10.8460272, 106.6712334",,
225,390,QNG - 169 Hung Vuong,"169 Hùng Vương, Phường Trần Phú, Thành phố Quảng Ngãi, Tỉnh Quảng Ngãi",Central2,Quang Ngai,Quang Ngai,"15.1220391, 108.7936149",,
226,391,QNG - 386 Nguyen Nghiem,"386 Nguyễn Nghiêm, Phường Nguyễn Nghiêm, Tp Quảng Ngãi, Tỉnh Quảng Ngãi",Central2,Quang Ngai,Quang Ngai,"15.1206291, 108.8022875",,
227,392,DON - 63 Quoc Lo 1A,"63 QL1A ấp Hòa Bình, Xã Đông Hòa, Huyện Trảng Bom, tỉnh Đồng Nai",SouthEast2,Dong nai,Trang Bom,"10.9425213, 107.0719792",,
228,393,BVT - C50 Tinh Lo 44A,"C50 Tỉnh Lộ 44A, Ấp Phước Lộc, Xã Phước Hưng, Huyện Long Điền, Tỉnh Bà Rịa – Vũng Tàu.",SouthEast2,Ba Ria - Vung Tau,Long Dien,"10.4600398, 107.2778339",,
229,394,DON - 240 Hung Vuong,"240 đường Hùng Vương, khu phố 5, thị trấn Gia Ray, huyện Xuân Lộc, tỉnh Đồng Nai.",SouthEast2,Dong Nai,Xuan Loc,"10.9254065, 107.4022364",,
230,395,DON - 633 Pham Van Thuan,"633 đường Phạm Văn Thuận, xã Tam Hiệp, Tp Biên Hòa, Tỉnh Đồng Nai",SouthEast2,Dong nai,Bien Hoa,"10.9466035, 106.8564043",,
231,396,AGI - 5-5A-7 Nguyen Tri Phuong,"5-5A-7 Nguyễn Tri Phương, Tổ 10, Khóm Hoà Bình, Phường Vĩnh Mỹ, TP Châu Đốc, Tỉnh An Giang",Mekong2,An Giang,Chau Doc,"10.7171754, 105.1094799",,
232,397,DNK - 17-19-21 Huynh Thuc Khang,"17, 19, 21 đường Huỳnh Thúc Kháng, thị xã Gia Nghĩa, Tỉnh Đăk Nông.",Highland2,Dak Nong,Gia Nghia,"12.0042, 107.6842",,
233,399,BVT - Quoc Lo 51,"Quốc Lộ 51, Khu phố Ông Trịnh, Phường Tân Phước, Thị Xã Phú Mỹ, Tỉnh Bà Rịa - Vũng Tàu",SouthEast2,Ba Ria - Vung Tau,Tan Thanh,"10.5590705, 107.0645474",,
234,401,DON - 1324 Quoc Lo 51,"1324 Quốc lộ 51, ấp Phước Hòa, xã Long Phước, huyện Long Thành, tỉnh Đồng Nai.",SouthEast2,Dong Nai,Long Thanh,"10.7097549, 107.0059304",,
235,402,STR - 39-41 Nguyen Hue,"39-41 Nguyễn Huệ, Khóm 1, Phường 1, Thị xã Vĩnh Châu, Tỉnh Sóc Trăng.",Mekong2,Soc Trang,Vinh Chau,"9.3235055, 105.9803404",,
236,403,KGI - 709 Quoc Lo 61,"709 QL61, Khu Phố Minh An, Thị trấn Minh Lương, Huyện Châu Thành, Tỉnh Kiên Giang.",Mekong2,Kien Giang,Chau Thanh,"9.9049994, 105.1590761",,
237,405,KHO - 288 Dai Lo Hung Vuong,"288 Đại Lộ Hùng Vương, tổ dân phố Hòa Thuận, Phường Cam Nghĩa, Thành phố Cam Ranh, Tỉnh Khánh Hoà",Central1,Khanh Hoa,Cam Ranh,"11.9875722, 109.191965",,
238,406,AGI - Nguyen Huu Canh,"Nguyễn Hữu Cảnh, Ấp Long Hòa, Thị Trấn Chợ Mới, Huyện Chợ Mới, Tỉnh An Giang",Mekong2,An Giang,Cho Moi,"10.54842, 105.4002642",,
239,407,KGI - 31 Mai Thi Hong Hanh,"31 Mai Thị Hồng Hạnh, Khu Phố 1, Phường Vĩnh Lợi, TP Rạch Giá, Tỉnh Kiên Giang.",Mekong2,Kien Giang,Rach Gia,"9.954336699999999, 105.1213771",,
240,408,GLA - 06 Le Loi,"06 Lê Lợi, P. Hội Thương, Tp. Pleiku, Gia Lai",Highland3,Gia Lai,Pleiku,"13.9767301, 108.0062115",,
241,409,CTO - 1A Mau Than,"1A Mậu Thân, Phường Xuân Khánh, Quận Ninh Kiều, Thành phố Cần Thơ",Mekong2,Can Tho,Ninh Kieu,"10.0326088, 105.7741234",,
242,410,HTI - 53-55 Tran Phu,"53-55, đường Trần Phú , phường Trần Phú, thành phố Hà Tĩnh, tỉnh Hà Tĩnh",North,Ha Tinh,Ha Tinh,"18.3410337, 105.8931224",,
243,411,BPH - 168 Duong DT 741,"168 đường DT741, xã Phú Riềng, H Phú Riềng, Bình Phước",SouthEast2,Binh Phuoc,Phu Rieng,"11.8101471, 106.9505632",,
244,413,QNG - 558 Quang Trung,"558 Quang Trung, Phường Nguyễn Nghiêm, TP. Quảng Ngãi, Tỉnh Quảng Ngãi",Central2,Quang Ngai,Quang Ngai,"15.1189544, 108.8058063",,
245,415,HCM - 17/15A Khu pho 6,"17/15 Đường Phan Văn Hớn, Khu phố 6A, Phường Tân Thới Nhất, Quận 12, Thành phố Hồ Chí Minh",HCM,Ho Chi Minh,Quan 12,"10.8327516, 106.6083392",,
246,416,QNA - Tran Quy Cap,"Trần Qúy Cáp (QL1A cũ), khu phố chợ Vĩnh Điện, Phường Vĩnh Điện , Thị xã Điện Bàn, Tỉnh Quảng Nam",Central2,Quang Nam,Dien Ban,"15.8949329, 108.2439408",,
247,417,DLK - 294-296 Giai Phong,"294-296 Giải Phóng, thị trấn Phước An, huyện Krông Pắc, tinh Đắc Lắc",Highland2,Dak Lak,Krong Pac,"12.7105244, 108.3025092",,
248,418,HCM - 1069 Tinh Lo 43,"1069 Tỉnh Lộ 43, Khu Phố 2, Phường Bình Chiểu, Thành phố Thủ Đức, Thành phố Hồ Chí Minh",HCM,Ho Chi Minh,Thu Duc,"10.8820895, 106.7288778",,
249,419,STR - 167 Tran Hung Dao,"167 Trần Hưng Đạo, Phường 03, TP Sóc Trăng, Tỉnh Sóc Trăng.",Mekong2,Soc Trang,Soc Trang,"9.5953988, 105.9705851",,
250,421,BDU - 60 Nguyen Van Tiet,"60 Nguyễn Văn Tiết, Phường Lái Thiêu, Thành phố Thuận An, Tỉnh Bình Dương.",SouthEast2,Binh Duong,Thuan An,"10.9075798, 106.7011232",,
251,422,HCM - 107 Mai Xuan Thuong,"107 Mai Xuân Thưởng, Phường 4, Quận 6, TPHCM",HCM,Ho Chi Minh,Quan 6,"10.7459248, 106.648461",,
252,423,HCM - 871 Pham The Hien,"871 Phạm Thế Hiển, Phường 4, Quận 8, TP.HCM",HCM,Ho Chi Minh,Quan 8,"10.7436978, 106.6725035",,
253,424,HCM - 175 Lam Van Ben,"175 Lâm Văn Bền, Khu phố 6, Phường Bình Thuận, Quận 7, Thành phố Hồ Chí Minh",HCM,Ho Chi Minh,Quan 7,"10.744748, 106.7160106",,
254,428,HCM - 204-206 Le Van Tho,"204-206 Lê Văn Thọ, Phường 11, Quận Gò Vấp",HCM,Ho Chi Minh,Go Vap,"10.8430055, 106.6572765",,
255,429,HCM - 2 Duong So 40,"Số 2, Đường số 40, Khu phố 8, Phường Tân Tạo, Quận Bình Tân, Thành phố Hồ Chí Minh",HCM,Ho Chi Minh,Binh Tan,"10.7521905, 106.6042014",,
256,430,HCM - 478 To Ngoc Van,"487 Tô Ngọc Vân , Khu Phố 1, Phường Tam Phú, Thành phố Thủ Đức, Thành phố Hồ Chí Minh",HCM,Ho Chi Minh,Thu Duc,"10.8619986, 106.7441934",,
257,431,HCM - 47 Tinh Lo 8,"47 Tỉnh lộ 8, Thị trấn Củ Chi, Huyện Củ Chi, Thành phố Hồ Chí Minh",HCM,Ho Chi Minh,Cu Chi,"10.9705835, 106.4897552",,
258,437,HCM - Aeon Mall Tan Phu,"S12, Tầng 2, Trung tâm thương mua sắm Aeon Mall - Tân Phú Celadon, 30 Bờ Bao Tân Thắng, Phường Sơn Kỳ, Quận Tân Phú, Thành phố Hồ Chí Minh",HCM,Ho Chi Minh,Tan Phu,"10.8013384, 106.6179585",,
259,438,BPH - 361 DT 741,"361 Đường ĐT741, Khu Phố 4, Phường Long Phước, Thị Xã Phước Long",SouthEast2,Binh Phuoc,Phuoc Long,"11.8130316, 106.9538053",,
260,439,HCM - 247 Hong Bang,"245 - 247 Hồng Bàng, Phường 11, Quận 5, Thành phố Hồ Chí Minh,Việt Nam",HCM,Ho Chi Minh,Quan 5,"10.7549475, 106.6618695",,
261,440,HCM - 43D Hoa Binh,"Số 43D Hòa Bình, Phường Tân Thới Hòa, Quận Tân Phú, Thành phố Hồ Chí Minh",HCM,Ho Chi Minh,Tan Phu,"10.7692955, 106.6352783",,
262,441,HCM - Lo C CC Tan My,"tầng 1+ 2, Lô C Chung cư Tân Mỹ, đường Tân Mỹ, Phường Tân Phú, Quận 7, Thành phố Hồ Chí Minh.",HCM,Ho Chi Minh,Quan 7,"10.7349598, 106.7187647",,
263,442,HAG - 361 Tran hung Dao,"361 Trần Hưng Đạo, Phường 1, Thành phố Vị Thanh, Tỉnh Hậu Giang",Mekong2,Hau Giang,Vi Thanh,"9.7819335, 105.4651295",,
264,443,HCM - 77 Quoc Huong,"Số 77, Đường Quốc Hương, Phường Thảo Điền, Thành phố Thủ Đức, Thành phố Hồ Chí Minh",HCM,Ho Chi Minh,Thu Duc,"10.8073242, 106.7307092",,
265,444,GLA - 347 Quang Trung,"347 Quang Trung, Tổ dân phố 10, Phường An Phú, Thị xã An Khê, Tỉnh Gia Lai.",Highland3,Gia Lai,An Khe,"13.9543237, 108.6642608",,
266,446,HCM - 141 Nguyen Hong,"141 Nguyên Hồng, Phường 01, Quận Gò Vấp, Thành phố Hồ Chí Minh",HCM,Ho Chi Minh,Go Vap,"10.8189426, 106.6902369",,
267,447,HCM - 396 Le Van Sy,"396 Lê Văn Sỹ, Phường 14, Quận 3, Thành phố Hồ Chí Minh",HCM,Ho Chi Minh,Quan 3,"10.7885276, 106.6768186",,
268,448,BVT - 62 Nguyen Huu Tho,"62 Nguyễn Hữu Thọ, Phường Phước Trung, Thành phố Bà Rịa, Tỉnh Bà Rịa - Vũng Tàu.",SouthEast2,Ba Ria - Vung Tau,Ba Ria,"10.4913548, 107.1736616",,
269,449,BTH - 324 Tran Hung Dao,"324 Trần Hưng Đạo, Khu phố 1, Phường Đức Thắng, Thành phố Phan Thiết, Tỉnh Bình Thuận",Central1,Binh Thuan,Phan Thiet,"10.9248919, 108.098932",,
270,452,BTH - 200 Thủ Khoa Huân,"200 Thủ Khoa Huân, Phường Phú Thủy, Thành phố Phan Thiết, Tỉnh Bình Thuận",Central1,Binh Thuan,Phan Thiet,"10.9324568, 108.1113612",,
271,453,BTH - 373 Trần Hưng Đạo,"373 Trần Hưng Đạo, Phường Bình Hưng, Thành phố Phan Thiết, Tỉnh Bình Thuận",Central1,Binh Thuan,Phan Thiet,"10.92818, 108.1047898",,
272,455,HNI - Aeon Mall Hà Đông,"T313 Tầng 3 AEONMALL Hà Đông, Khu đô thị mới Dương Nội, Phường Dương Nội, Quận Hà Đông, Thành phố Hà Nội",North,Ha Noi,Ha Dong,"20.99036, 105.7488845",,
273,459,HCM - 223B Cống Quỳnh,"223B Cống Quỳnh, Nguyễn Cư Trinh, Quận 1, HCM",HCM,Ho Chi Minh,Quan 1,"10.7677595, 106.6854241",,
274,460,HCM - 258-260 Phạm Văn Hai,"258-260 Phạm Văn Hai, Phường 5, Quận Tân Bình, Thành phố Hồ Chí Minh",HCM,Ho Chi Minh,Tan Binh,"10.7925843, 106.6608817",,
275,461,BDU - 01 Ngô Thời Nhậm,"01 Ngô Thì Nhậm, Phường Dĩ An, Thành phố Dĩ An, Tỉnh Bình Dương",SouthEast2,Binh Duong,Di An,"10.8965622, 106.7670954",,
276,462,TNI - 1186 CMT8,"1186 đường Cách Mạng Tháng Tám, Khu Phố 2, Phường 4, Thành Phố Tây Ninh, Tỉnh Tây Ninh",SouthEast1,Tay Ninh,Tay Ninh,"11.3065961, 106.1256864",,
277,463,HCM - 744 Phạm Văn Đồng,"744 Phạm Văn Đồng, Khu phố 4, Phường Hiệp Bình Chánh, Thành phố Thủ Đức, Thành phố Hồ Chí Minh",HCM,Ho Chi Minh,Thu duc,"10.8288014, 106.7226725",,
278,464,LAN - 46 Đường Chợ Mới,"46 Đường Chợ Mới, Xã Long Hòa, Huyện Cần Đước, Tỉnh Long An",Mekong1,Long An,Can Duoc,"10.5818234, 106.5897436",,
279,465,LAN - 16 Tỉnh lộ 825,"16 Đường Tỉnh lộ 825, Ấp Bình Tả 2, Xã Đức Hòa Hạ, Huyện Đức Hòa, Tỉnh Long An.",Mekong1,Long An,Duc Hoa,"10.7978438, 106.4710155",,
280,467,HCM - 77 - 79 An Dương Vương,"77 - 79 An Dương Vương, Phường 8, quận 5, TPHCM",HCM,Ho Chi Minh,Quan 5,"10.7568457, 106.671195",,
281,468,HCM - 88/4 Nguyễn Ảnh Thủ,"88/4 Nguyễn Ảnh Thủ, Ấp Tây Lân, Xã Bà Điểm, Huyện Hóc Môn, Thành phố Hồ Chí Minh",HCM,Ho Chi Minh,Hoc Mon,"10.8459868, 106.6000199",,
282,469,BDU - 67/13 Đường ĐT743,"67/13 đường DT743, Khu phố Bình Phước B, Phường Bình Chuẩn, Thành phố Thuận An, Tỉnh Bình Dương",SouthEast2,Binh Duong,Thuan An,"10.9785435, 106.73395",,
283,470,DON - Trần Văn Xã,"2/11 Trần Văn Xã, Khu Phố 5, Phường Trảng Dài, Thành phố Biên Hòa, Tỉnh Đồng Nai",SouthEast2,Dong nai,Bien Hoa,"10.9889427, 106.8575898",,
284,471,CMA - 4B - 5 Hùng Vương,"4B-5 Hùng Vương, Khóm 4, Phường 7, TP.Cà Mau, Cà Mau",Mekong2,Ca Mau,Ca Mau,"9.1748653, 105.1500758",,
285,472,VLO - 64/6D Trần Phú,"64/6D Trần Phú, Phường 4, Thành phố Vĩnh Long, Tỉnh Vĩnh Long",Mekong2,Vinh Long,Vinh Long,"10.2340586, 105.9888429",,
286,473,DNA - 842- 844 Tôn Đức Thắng,"842 - 844 Tôn Đức Thắng, Phường Hòa Khánh Bắc, Quận Liên Chiểu, Thành phố Đà Nẵng",Central2,Da Nang,Lien Chieu,"16.0695207, 108.1515821",,
287,474,TVI - 12 Điện Biên Phủ,"12 Điện Biên Phủ, Phường 06, Thành phố Trà Vinh, Tỉnh Trà Vinh",Mekong2,Tra Vinh,Tra Vinh,"9.9352652, 106.3414498",,
288,475,TGI - 210 Đường Tỉnh 875,"210 Đường Tỉnh 875, tổ 18, khu 3, Thị Trấn Cái Bè, Huyện Cái Bè, Tỉnh Tiền Giang",Mekong1,Tien Giang,Cai Be,"10.3385731, 106.0334033",,
289,476,HCM - 307 Nguyễn Sơn,"307 Nguyễn Sơn, Phường Phú Thạnh, Quận Tân Phú, Thành phố Hồ Chí Minh",HCM,Ho Chi Minh,Tan Phu,"10.7839176, 106.6225796",,
290,477,BDU - 30/2 ĐT 743,"30/2 ĐT 743, Khu phố Bình Quới A, Phường Bình Chuẩn, Thành phố Thuận An, Tỉnh Bình Dương.",SouthEast2,Binh Duong,Thuan An,"10.9523405, 106.6904879",,
291,480,BDU - 02 Lê Hồng Phong,"02 Lê Hồng Phong, Khu Phố Đông Thành, Phường Tân Đông Hiệp, Thành Phố Dĩ An, Tỉnh Bình Dương",SouthEast2,Binh Duong,Di An,"10.9267633, 106.759625",,
292,490,DON - 58 Đồng Khởi,"58 Đồng Khởi, Khu phố 11, Phường Tân Phong, Thành phố Biên Hòa, Tỉnh Đồng Nai.",SouthEast2,Dong nai,Bien Hoa,"10.9819313, 106.8475336",,
293,492,HCM - 37 Trần Phú Cương,"37 Trần Phú Cương, Phường 5, Quận Gò Vấp, Thành phố Hồ Chí Minh",HCM,Ho Chi Minh,Go Vap,"10.8243787, 106.6869077",,
294,493,HCM - 16 Nguyễn Văn Thương,"16 Nguyễn Văn Thương, Phường 25, Quận Bình Thạnh, Thành phố Hồ Chí Minh",HCM,Ho Chi Minh,Binh Thanh,"10.8002955, 106.7200657",,
295,494,NAN - 83 Nguyễn Văn Cừ,"83 Nguyễn Văn Cừ, Khối 2 Phường Trường Thi, Thành phố Vinh, Tỉnh Nghệ An",North,Nghe An,Vinh,"18.6757049, 105.6870101",,
296,496,TGI - 458/2 Quốc Lộ 1A,"458/2 Quốc Lộ 1A, Ấp Tân Phong, Xã Tân Lý Tây, Huyện Châu Thành, Tỉnh Tiền Giang",Mekong1,Tien Giang,Chau Thanh,"10.4636172, 106.3516681",,
297,497,BVT - 305 Nguyễn An Ninh,"305 Nguyễn An Ninh, phường 09, TP. Vũng Tàu , Tỉnh Bà Rịa-Vũng Tàu",SouthEast2,Ba Ria - Vung Tau,Vung Tau,"10.3621958, 107.0949818",,
298,498,HCM - 470 Hồ Học Lãm,"470 Hồ Học Lãm, Khu phố 3, Phường An Lạc, Quận Bình Tân",HCM,Ho Chi Minh,Binh Tan,"10.7278729, 106.607637",,
299,501,HCM - 786 Nguyễn Văn Tạo,"786 Nguyễn Văn Tạo, Ấp 1, Xã Hiệp Phước, Huyện Nhà Bè, Thành phố Hồ Chí Minh.",HCM,Ho Chi Minh,Nha Be,"10.6322861, 106.7356534",,
300,502,BDU - 533/12B KP Đông Thành,"533/12B Khu phố Đông Thành, Phường Tân Đông Hiệp, Thành phố Dĩ An, Tỉnh Bình Dương",SouthEast2,Binh Duong,Di An,"10.9267633, 106.759625",,
301,503,DON - F7/1 - F7/2 Quốc Lộ 51,"F7/1 - F7/2 Quốc Lộ 51, Khu Phố 1, Phường Long Bình Tân, Thành phố Biên Hòa, Tỉnh Đồng Nai",SouthEast2,Dong nai,Bien Hoa,"10.9018678, 106.8523277",,
302,504,HCM - 401 Nơ Trang Long,"401 Nơ Trang Long, Phường 13, Quận Bình Thạnh, Thành phố Hồ Chí Minh",HCM,Ho Chi Minh,Binh Thanh,"10.8201438, 106.7037947",,
303,505,HCM - 179 Độc Lập,"179 Độc Lập, Phường Tân Quý, Quận Tân Phú, Thành phố Hồ Chí Minh",HCM,Ho Chi Minh,Tan Phu,"10.7928284, 106.6286604",,
304,506,HAP - 2 - 4 Cầu Đất,"2 - 4 Cầu Đất, phường Cầu Đất, Ngô Quyền, Thành phố Hải Phòng",North,Hai Phong,Ngo Quyen,"20.8556792, 106.6817116",,
305,507,DON - 450 Lý Thái Tổ,"450 Lý Thái Tổ, Ấp Bến Cam, Xã Phước Thiền, Huyện Nhơn Trạch, Tỉnh Đồng Nai",SouthEast2,Dong Nai,Nhon Trach,"10.7575345, 106.922809",,
306,509,CMA - Nguyễn Tất Thành,"Nguyễn Tất Thành, Khóm 2, Thị Trấn Năm Căn, Huyện Năm Căn, Tỉnh Cà Mau",Mekong2,Ca Mau,Nam Can,"8.759819499999999, 104.9941266",,
307,510,BVT - 6 - 8 Huỳnh Minh Thạnh,"6 – 8 đường Huỳnh Minh Thạnh, Thị trấn Phước Bửu, Huyện Xuyên Mộc, Tỉnh Bà Rịa – Vũng Tàu",SouthEast2,Ba Ria - Vung Tau,Xuyen Moc,"10.5347981, 107.3993437",,
308,512,TGI - 39B Quốc Lộ 50,"39B Quốc Lộ 50, Khu phố 5, Thị trấn Vĩnh Bình, Huyện Gò Công Tây, Tỉnh Tiền Giang",Mekong1,Tien Giang,Go Cong Tay,"10.3572335, 106.5809164",,
309,513,BDU - 626 Cách Mạng Tháng Tám,"626 Cách Mạng Tháng Tám, Phú Cường, Thành phố Thủ Dầu Một, Tỉnh Bình Dương",SouthEast2,Binh Duong,Thu Dau Mot,"10.9750882, 106.6583298",,
310,514,BDU - 14 Nguyễn Du,"14 Nguyễn Du, Phường Bình Hòa, Thành Phố Thuận An, Tỉnh Bình Dương",SouthEast2,Binh Duong,Thuan An,"10.9211701, 106.7336178",,
311,519,HCM - 212-214A Bình Long,"212-214A, đường Bình Long, Phường Phú Thạnh, Quận Tân Phú, Thành phố Hồ Chí Minh",HCM,Ho Chi Minh,Tan Phu,"10.780506, 106.620311",,
312,520,QNG - 2 Hai Bà Trưng,"2 Hai Bà Trưng, phường Lê Hồng Phong, Thành Phố Quảng Ngãi, tỉnh Quảng Ngãi.",Central2,Quang Ngai,Quang Ngai,"15.1328489, 108.8012606",,
313,521,HCM - 742 - 744 Tỉnh Lộ 43,"742 - 744 Tỉnh Lộ 43, Khu phố 3, Phường Bình Chiểu, Thành phố Thủ Đức, Thành phố Hồ Chí Minh",HCM,Ho Chi Minh,Thu Duc,"10.8722396, 106.7332851",,
314,522,TNI - 410 Quốc lộ 22B,"410 Quốc lộ 22B, Khu phố Nội ô A, Thị trấn Gò Dầu, Huyện Gò Dầu, Tỉnh Tây Ninh",SouthEast1,Tay Ninh,Go Dau,"11.0840017, 106.2653655",,
315,523,LAN - 185 Phan Văn Mãng,"185 Phan Văn Mãng, Khu phố 9, Thị trấn Bến Lức, Huyện Bến Lức, Long An",Mekong1,Long An,Ben Luc,"10.6272719, 106.4948521",,
316,524,TNI - 232 Cách Mạng Tháng Tám,"232 Cách Mạng Tháng Tám, Khu phố 1, Phường 2, Thành Phố Tây Ninh, Tỉnh Tây Ninh",SouthEast1,Tay Ninh,Tay Ninh,"11.3161464, 106.0907472",,
317,525,HCM - B5/4A-B5/5 Trần Đại Nghĩa,"B5/4A-B5/5 Trần Đại Nghĩa, Xã Tân Kiên, Huyện Bình Chánh, Thành phố Hồ Chí Minh",HCM,Ho Chi Minh,Binh Chanh,"10.7289985, 106.5833578",,
318,526,LAN - 105 - 107 Quốc Lộ 50,"105 - 107 Quốc Lộ 50, Thị trấn Cần Giuộc, Huyện Cần Giuộc, Tỉnh Long An",Mekong1,Long An,Can Giuoc,"10.6061136, 106.6713064",,
319,527,HCM - 48A An Dương Vương,"48A An Dương Vương, Phường 16, Quận 8, Thành phố Hồ Chí Minh",HCM,Ho Chi Minh,Quan 8,"10.7254818, 106.6262545",,
320,532,KHO - B5-B6 Chung cư Vĩnh Phước,"B5 - B6 (tầng 1) Chung cư Vĩnh Phước, Đường 2/4, Phường Vĩnh Phước, Thành phố Nha Trang, Tỉnh Khánh Hòa.",Central1,Khanh Hoa,Nha Trang,"12.2738468, 109.1977172",,
321,533,LAN - 30 Quốc Lộ 1A,"30 Quốc Lộ 1A, Phường 5, Thành phố Tân An, Tỉnh Long An.",Mekong1,Long An,Tan An,"10.5644085, 106.4210317",,
322,534,HCM - 1355 Tỉnh lộ 10,"1355 Tỉnh lộ 10, Khu phố 2, Phường Tân Tạo A, Quận Bình Tân, Thành phố Hồ Chí Minh",HCM,Ho Chi Minh,Binh Tan,"10.7566836, 106.5891899",,
323,535,DON - 537 Cách Mạng Tháng Tám,"537 Cách Mạng Tháng Tám, Phường Hòa Bình, Thành phố Biên Hòa, Đồng Nai",SouthEast2,Dong Nai,Bien Hoa,"10.9524409, 106.8081777",,
324,536,BDU - 81 Đại lộ Bình Dương,"81 Đại lộ Bình Dương, Phường Phú Thọ, Thành phố Thủ Dầu Một, Tỉnh Bình Dương",SouthEast2,Binh Duong,Thu Dau Mot,"10.9663432, 106.6828231",,
325,537,BDU - 416 Cách Mạng Tháng Tám,"416 Cách Mạng Tháng Tám, Phường Phú Cường, Thành phố Thủ Dầu Một, Tỉnh Bình Dương",SouthEast2,Binh Duong,Thu Dau Mot,"10.9836878, 106.6525143",,
326,538,DON - 2227 Quốc Lộ 1A,"2227 đường Quốc Lộ 1A, Xã Hố Nai 3, Huyện Trảng Bom, Tỉnh Đồng Nai.",SouthEast2,Dong Nai,Trang Bom,"10.9476577, 106.9844904",,
327,539,LAN - 23 DT823,"23 DT823, Ấp Đức Hạnh 2, Xã Đức Lập Hạ, Huyện Đức Hòa, Tỉnh Long An.",Mekong1,Long An,Duc Hoa,"10.9139811, 106.4288285",,
328,540,LDO - 321 đường 2/4,"321 đường 2/4, Thị trấn Thạnh Mỹ, Huyện Đơn Dương, Tỉnh Lâm Đồng.",Highland1,Lam Dong,Don Duong,"11.7601669, 108.4841312",,
329,541,TNI - Quốc Lộ 22,"Quốc Lộ 22, Tổ 6, Khu phố An Bình, Phường An Tịnh, Thị xã Trảng Bàng, Tỉnh Tây Ninh",SouthEast1,Tay Ninh,Trang Bang,"11.0270819, 106.3800548",,
330,542,HCM - 510 Nguyễn Thị Minh Khai,"510 Nguyễn Thị Minh Khai, Phường 2, Quận 3, Thành phố Hồ Chí Minh",HCM,Ho Chi Minh,Quan 3,"10.7659346, 106.681936",,
331,543,KGI - Lô 1 Đường số 8,"Lô 1 Đường số 8, Khu phố Thị Tứ, Thị trấn Sóc Sơn, Huyện Hòn Đất, Tỉnh Kiên Giang",Mekong2,Kien Giang,Hon Dat,"10.1070034, 105.0148322",,
332,545,HCM - 304B Trường Chinh,"304B Trường Chinh, Phường 13, Quận Tân Bình, Thành phố Hồ Chí Minh",HCM,Ho Chi Minh,Tan Binh,"10.7979697, 106.6441671",,
333,546,HCM - 140 Lý Thường Kiệt,"140 Lý Thường Kiệt, Phường 7, Quận 10, Thành phố Hồ Chí Minh.",HCM,Ho Chi Minh,Quan 10,"10.7636796, 106.6601795",,
334,547,LDO - 21-22 Quốc Lộ 20,"21-22 Quốc Lộ 20, Thôn 2, Xã Hòa Ninh, Huyện Di Linh, Tỉnh Lâm Đồng",Highland1,Lam Dong,Di Linh,"11.5376025, 107.9534507",,
335,548,AGI - 3855 - 3857 BẠCH ĐẰNG,"3855 - 3857 Đường Bạch Đằng, Ấp An Hưng, Thị trấn An Phú, Huyện An Phú, Tỉnh An Giang",Mekong2,An Giang,An Phu,"10.7885968, 105.0937378",,
336,549,LDO - 19-21 Thống Nhất,"19-21 Thống Nhất, Thị trấn Liên Nghĩa, Huyện Đức Trọng, Tỉnh Lâm Đồng",Highland1,Lam Dong,Duc Trong,"11.7360004, 108.3742356",,
337,550,BDU - Lô CC1,"Lô CC1, đường N1, P. Mỹ Phước, TX. Bến Cát, Bình Dương",SouthEast2,Binh Duong,Ben Cat,"11.1261874, 106.6065502",,
338,552,BDU - 107 đường số 8,"107 đường số 8 KDC Hiệp Thành 3, Thủ Dầu Một, Bình Dương",SouthEast2,Binh Duong,Thu Dau Mot,"11.0000107, 106.6690409",,
339,553,HCM - 2167/1B Vườn Lài,"2167/1B Vườn Lài, Khu phố 1, Phường An Phú Đông, Quận 12, Thành phố Hồ Chí Minh",HCM,Ho Chi Minh,Quan 12,"10.8475592, 106.6950283",,
340,554,TNI - 129 Tôn Đức Thắng,"129 Tôn Đức Thắng, Khu phố 1, thị trấn Tân Châu, Huyện Tân Châu, tỉnh Tây Ninh.",SouthEast1,Tay Ninh,Tan Chau,"11.5529993, 106.1616717",,
341,555,BDU - Lô DC37 Đường D33,"Ô 06-07-08, Lô DC37, Đường D33, KDC Việt Sing, Phường An Phú, Thành phố Thuận An, Tỉnh Bình Dương",SouthEast2,Binh Duong,Thuan An,"10.9423882, 106.7283425",,
342,556,HCM - 79A - 81 đường Hiệp Bình,"79A - 81 đường Hiệp Bình, Phường Hiệp Bình Chánh, Thành phố Thủ Đức, Thành phố Hồ Chí Minh",HCM,Ho Chi Minh,Thu Duc,"10.8453961, 106.7268549",,
343,557,QNI - 18 Phố Giếng Đồn,"18 Phố Giếng Đồn, phường Trần Hưng Đạo, Thành phố Hạ Long, Quảng Ninh",North,Quang Ninh,Ha Long,"20.9526264, 107.0856767",,
344,558,TNI - 363 Châu Văn Liêm,"363 Châu Văn Liêm, Ấp Hiệp Long, Xã Hiệp Tân, H.Hoà Thành, Tây Ninh",SouthEast1,Tay Ninh,Hoa Thanh,"11.2918705, 106.1244631",,
345,559,HCM - 85-87 Vườn Lài,"85-87 Vườn Lài, Phường Phú Thọ Hòa, Quận Tân Phú, Thành phố Hồ Chí Minh",HCM,Ho Chi Minh,Tan Phu,"10.787629, 106.633297",,
346,560,HCM - 1463-1465 Nguyễn Duy Trinh,"1463 - 1465 Nguyễn Duy Trinh, Khu Phố Phước Lai, Phường Trường Thạnh, Thành phố Thủ Đức, Thành phố Hồ Chí Minh",HCM,Ho Chi Minh,Thu Duc,"10.8062738, 106.821753",,
347,561,BDU - Chợ Phú Chánh A,"Thửa đất số 13, tờ bản đồ 50, Khu tái định cư Phú Chánh, Phường Hòa Phú, Thành phố Thủ Dầu Một, Tỉnh Bình Dương",SouthEast2,Binh Duong,Thu Dau Mot,"11.054353, 106.6885027",,
348,562,HCM - Kho Online Trung Tâm,"tầng 1+ 2, Lô C Chung cư Tân Mỹ, đường Tân Mỹ, Phường Tân Phú, Quận 7, Thành phố Hồ Chí Minh.",HCM,Ho Chi Minh,Quan 7,"10.7349598, 106.7187647",,
349,563,DON - 2698 Quốc Lộ 1A,"2698 Quốc Lộ 1A, xã Hố Nai 3, huyện Trảng Bom, tỉnh Đồng Nai",SouthEast2,Dong Nai,Trang Bom,"10.9654371, 106.9343517",,
350,564,HCM - 232A-232B Go Xoai,"232A - 232B Gò Xoài, Khu phố 3, Phường Bình Hưng Hòa A, Quận Bình Tân, Thành phố Hồ Chí Minh.",HCM,Ho Chi Minh,Binh Tan,"10.7876362, 106.6048417",,
351,567,DNA - 164 Nui Thanh,"164 Núi Thành, phường Hoà Cường Bắc, Quận Hải Châu, TP Đà Nẵng",Central2,Da Nang,Hai Chau,"16.0462381, 108.2209898",,
352,569,CTO - 41A Le Hong Phong,"41A đường Lê Hồng Phong, phường Bình Thuỷ, Quận Bình Thuỷ, TP Cần Thơ",Mekong2,Can Tho,Binh Thuy,"10.075126, 105.749262",,
353,570,HCM - 178 - 180 Ten Lua,"178-180 Tên Lửa, Phường Bình Trị Đông B, Quận Bình Tân, Thành phố Hồ Chí Minh",HCM,Ho Chi Minh,Binh Tan,"10.746896, 106.612541",,
354,571,HCM - 91/11A Le Loi,"91/11A Lê Lợi, ấp Dân Thắng 2, xã Tân Thới Nhì, huyện Hóc Môn, thành phố Hồ Chí Minh",HCM,Ho Chi Minh,Hoc Mon,"10.892671, 106.5879989",,
355,572,HCM - E9/6A Thoi Hoa,"E9/6A Thới Hòa, Ấp 5A, Xã Vĩnh Lộc A, Huyện Bình Chánh, Thành Phố Hồ Chí Minh",HCM,Ho Chi Minh,Binh Chanh,"10.8296233, 106.5787705",,
356,573,BVT - 288 Truong Cong Dinh,"288 (số cũ 231) Trương Công Định, Phường 3, Thành phố Vũng Tàu, Tỉnh Bà Rịa – Vũng Tàu.",SouthEast2,Ba Ria - Vung Tau,Vung Tau,"10.3507487, 107.0824813",,
357,575,HCM - 2 Tuy Ly Vuong,"2 Tuy Lý Vương, Phường 13, Quận 8, Thành phố Hồ Chí Minh",HCM,Ho Chi Minh,Quan 8,"10.7443635, 106.6556481",,
358,576,DNA - 824 Ngo Quyen,"824 Ngô Quyền, Phường An Hải Bắc, Quận Sơn Trà, TP Đà Nẵng",Central2,Da Nang,Son Tra,"16.0789565, 108.2325928",,
359,577,KHO - 2436 Dai Lo Hung Vuong,"2436 Đại Lộ Hùng Vương, tổ dân phố Hương Long, phường Ba Ngòi, thành phố Cam Ranh, tỉnh Khánh Hòa",Central1,Khanh Hoa,Cam Ranh,"11.9129221, 109.1335802",,
360,578,BDU - KP 1A An Phu,"Khu Phố 1A, Phường An Phú, Thành Phố Thuận An, Tỉnh Bình Dương",SouthEast2,Binh Duong,Thuan An,"10.9393589, 106.7495946",,
361,579,KHO - 05 Nguyen Thi Ngoc Oanh,"05 Nguyễn Thị Ngọc Oanh, phường Ninh Hiệp, Thị xã Ninh Hòa, tỉnh Khánh Hòa",Central1,Khanh Hoa,Ninh Hoa,"12.4910687, 109.1262486",,
362,580,KHO - 1067 Le Hong Phong,"1067 Lê Hồng Phong, phường Phước Long, thành phố Nha Trang, tỉnh Khánh Hòa",Central1,Khanh Hoa,Nha Trang,"12.215976, 109.1904924",,
363,582,HCM - 182 Dương Bá Trạc,"182 Dương Bá Trạc, Phường 2, Quận 8, Thành phố Hồ Chí Minh",HCM,Ho Chi Minh,Quan 8,"10.7469161, 106.6887859",,
364,583,LDO - 143 Phạm Văn Đồng,"143 Phạm Văn Đồng, tổ dân phố 3, thị trấn Cát Tiên, huyện Cát Tiên, tỉnh Lâm Đồng.",Highland1,Lam Dong,Cat Tien,"11.582329, 107.3629589",,
365,584,HCM - D13/40A Pham Van Sang,"D13/40A Phạm Văn Sáng, Ấp 4, Xã Vĩnh Lộc A, Huyện Bình Chánh, Thành phố Hồ Chí Minh.",HCM,Ho Chi Minh,Binh Chanh,"10.8332468, 106.5700042",,
366,585,HCM - 425 Tỉnh Lộ 15,"425 Tỉnh Lộ 15, tổ 4, ấp 8, xã Tân Thạnh Đông , huyện Củ Chi, TP HCM",HCM,Ho Chi Minh,Cu Chi,"10.959429, 106.5978779",,
367,586,VLO - Thị trấn Vũng Liêm,"Thửa đất số 311-312, tờ bản đồ số 9, đường Nam Kỳ Khởi Nghĩa, Khóm 2, Thị trấn Vũng Liêm, Huyện Vũng Liêm, Tỉnh Vĩnh Long",Mekong2,Vinh Long,Vung Liem,"10.0869754, 106.189133",,
368,587,TNI - 02-04 Nguyễn Chí Thanh,"02 - 04 đường Nguyễn Chí Thanh, Thị trấn Tân Biên, Huyện Tân Biên, Tỉnh Tây Ninh",SouthEast1,Tay Ninh,Tan Bien,"11.5428696, 106.0052322",,
369,589,KGI - KP3 TT thứ 11,"khu phố 3, TT Thứ 11, Huyện An Minh, Tỉnh Kiên Giang.",Mekong2,Kien Giang,An Minh,"9.6203828, 104.9451521",,
370,590,DNA - 93-95 Lê Văn Hiến,"93-95 Lê Văn Hiến, phường Khuê Mỹ, quận Ngũ Hành Sơn, Đà Nẵng",Central2,Da Nang,Ngu Hanh Son,"16.0235294, 108.2508019",,
371,591,DON - 665 Quốc lộ 20,"665 Quốc lộ 20, tổ 20, Khu phố Trần Cao Vân, Thị trấn Dầu Giây, Huyện Thống Nhất, Tỉnh Đồng Nai",SouthEast2,Dong Nai,Thong Nhat,"10.9414658, 107.1352862",,
372,592,DON - So 3 Pho 1,"Số 3 Phố 1, Ấp 3, Xã Phú Vinh, Huyện Định Quán, Tỉnh Đồng Nai",SouthEast2,Dong Nai,Dinh Quan,"11.2316858, 107.3787338",,
373,593,BTR - 72/7B To 9,"72/7B Tổ 9, Khu Phố 2, TT Chợ Lách, Huyện Chợ Lách, Tỉnh Bến Tre",Mekong1,Ben Tre,Cho Lach,"10.2582121, 106.1199962",,
374,598,HCM - 66 Nguyễn Du,"66 Nguyễn Du, Phường Bến Nghé, Quận 1, Thành phố Hồ Chí Minh",HCM,Ho Chi Minh,Quan 1,"10.781798, 106.7013401",,
375,599,KHO - 19 Hoàng Diệu,"19 Hoàng Diệu, phường Vĩnh Nguyên, thành phố Nha Trang, tỉnh Khánh Hòa",Central1,Khanh Hoa,Nha Trang,"12.2205408, 109.2002526",,
376,600,DON - Thua Dat so 104,"Thửa đất số 104, tờ bản đồ 97, Quốc lộ 51, Khu phố Tân Mai 2, Phường Phước Tân, Thành phố Biên Hòa, Tỉnh Đồng Nai",SouthEast2,Dong Nai,Bien Hoa,"10.8759907, 106.9093121",,
377,601,LAN - Thửa Đất 438 ĐT824,"Thửa đất số 438, tờ bản đồ số 7, ĐT824, Ấp Mới 2, Xã Mỹ Hạnh Nam, Huyện Đức Hòa, Tỉnh Long An",Mekong1,Long An,Duc Hoa,"10.8693505, 106.4970655",,
378,602,BDU - Ngã Tư Bến Trám,"Thửa đất số 109, tờ bản đồ 19, đường DT741, ấp 1A, xã Phước Hoà, huyện Phú Giáo, tỉnh Bình Dương",SouthEast2,Binh Duong,Phu Giao,"11.6367924, 106.9014498",,
379,603,HCM - 123 Lê Văn Quới,"123 Lê Văn Quới, Khu phố 2, Phường Bình Trị Đông, Quận Bình Tân, Thành Phố Hồ Chí Minh",HCM,Ho Chi Minh,Binh Tan,"10.7744485, 106.6183201",,
380,604,LAN - 299 Quốc Lộ 50,"299 QL 50, Khu 1A, TT Cần Đước, Huyện Cần Đước, Tỉnh Long An",Mekong1,Long An,Can Duoc,"10.4948452, 106.6157699",,
381,605,DNA - 199-201 Tôn Đức Thắng,"199-201 Tôn Đức Thắng, phường Hoà Minh, Quận Liên Chiểu, Thành phố Đà Nẵng.",Central2,Da Nang,Lien Chieu,"16.057232, 108.172331",,
382,606,HCM - 385 Bùi Đình Túy,"385 Bùi Đình Túy, Phường 14, Quận Bình Thạnh, Hồ Chí Minh",HCM,Ho Chi Minh,Binh Thanh,"10.8064887, 106.6984141",,
383,607,LDO - Big C Đà Lạt,"Quảng trường Lâm Viên, đường Trần Quốc Toản, Phường 1, Thành phố Đà Lạt, Lâm Đồng",Highland1,Lam Dong,Da Lat,"11.9393622, 108.445203",,
384,608,HCM - 9 Út Tịch,"9 Út Tịch, Phường 4, Quận Tân Bình, Thành Phố Hồ Chí Minh.",HCM,Ho Chi Minh,Tan Binh,"10.7966614, 106.6587386",,
385,609,BVT - Go! Mall Bà Rịa,"Go! Mall Bà Rịa , Đường Lê Thành Duy, P. Phước Hiệp, TP. Bà Rịa, Tỉnh Bà Rịa - Vũng Tàu",SouthEast2,Ba Ria - Vung Tau,Ba Ria,"10.4924089, 107.1687288",,
386,610,DNA - 36 Nguyễn Đức Trung,"36 Nguyễn Đức Trung, phường Thanh Khê Đông, Quận Thanh Khê, TP Đà Nẵng",Central2,Da Nang,Thanh Khe,"16.0702535, 108.1872201",,
387,611,HCM - 60 Quốc Lộ 22,"60 Quốc Lộ 22, ấp Bàu Sim, xã Tân Thông Hội, huyện Củ Chi, TP HCM",HCM,Ho Chi Minh,Cu Chi,"10.9476366, 106.5238578",,
388,612,HCM - 84 Nguyễn Văn Đậu,"84 Nguyễn Văn Đậu, P7, Q Bình Thạnh, TP. Hồ Chí Minh",HCM,Ho Chi Minh,Binh Thanh,"10.8084786, 106.6882954",,
389,613,HCM - 93 Nguyễn Bỉnh Khiêm,"93 Nguyễn Bỉnh Khiêm, Phường Đa Kao, Quận 1, Thành phố Hồ Chí Minh",HCM,Ho Chi Minh,Quan 1,"10.791373, 106.700248",,
390,614,ĐTH - Trần Hưng Đạo,"Trần Hưng Đạo, Khóm 2, Thị Trấn Tràm Chim, Huyện Tam Nông, Tỉnh Đồng Tháp",Mekong2,Dong Thap,Tam Nong,"10.6712325, 105.5603852",,
391,615,BGI - 161 Lê Lợi,"161 đường Lê Lợi, phường Lê Lợi , thành phố Bắc Giang, tỉnh Bắc Giang",North,Bac Giang,Bac Giang,"21.2733898, 106.1962559",,
392,617,HNI - 205 Nguyễn Đức Thuận,"205 đường Nguyễn Đức Thuận, thị trấn Trâu Quỳ, huyện Gia Lâm, thành phố Hà Nội",North,Ha Noi,Gia Lam,"21.0213441, 105.9380471",,
393,618,DON - Go! Đồng Nai,"Big C Đồng Nai, 833 Xa lộ Hà Nội, Long Bình Tân, Thành phố Biên Hòa, Đồng Nai",SouthEast2,Dong Nai,Bien Hoa,"10.9056093, 106.8504338",,
394,619,LAN - 38 QL62,"38 QL62, khu phố 3, thị trấn Tân Thạnh, huyện Tân Thạnh, tỉnh Long An",Mekong1,Long An,Tan Thanh,"10.6110663, 106.0475731",,
395,620,HCM - 386 Trần Hưng Đạo,"386 Trần Hưng Đạo, Phường 2, Quận 5, Thành phố Hồ Chí Minh",HCM,Ho Chi Minh,Quan 5,"10.7564868, 106.6844401",,
396,621,KHO - 45A Nguyễn Thị Minh Khai,"45A Nguyễn Thị Minh Khai, phường Tân Lập, thành phố Nha Trang, tỉnh Khánh Hòa",Central1,Khanh Hoa,Nha Trang,"12.2381784, 109.1921006",,
397,622,HNI - BT8-VT11,"BT8-VT11, Khu nhà ở Xa La, phường Phúc La, quận Hà Đông, thành phố Hà Nội.",North,Ha Noi,Ha Dong,"20.9627402, 105.7920252",,
398,623,HUE - 111 Mai Thúc Loan,"111 Mai Thúc Loan, phường Thuận Thành, thành phố Huế, tỉnh Thừa Thiên Huế",Central3,Hue,Hue,"16.4757896, 107.5814652",,
399,624,QNG - 282 Phạm Văn Đồng,"282 Phạm Văn Đồng, Thị trấn Châu Ổ, Huyện Bình Sơn, Tỉnh Quảng Ngãi",Central2,Quang Ngai,Quang Ngai,"15.3004449, 108.7581015",,
400,625,TGI - 02 đường 30/04,"02 đường 30/04, khu phố 1, phường 1, Thị xã Cai Lậy, tỉnh Tiền Giang",Mekong1,Tien Giang,Cai Lay,"10.4165138, 106.1231328",,
401,626,AGI - 34 Trần Hưng Đạo,"34 đường Trần Hưng Đạo, thị trấn Tri Tôn, huyện Tri Tôn, tỉnh An Giang",Mekong2,An Giang,Tri Ton,"10.4277648, 105.0017768",,
402,627,HCM - 285 Âu Cơ,"285 Âu Cơ, Phường Phú Trung, Quận Tân Phú, Thành Phố Hồ Chí Minh",HCM,Ho Chi Minh,Tan Phu,"10.775375, 106.647479",,
403,628,HCM - 416 Quốc lộ 13,"HCM - 416 Quốc lộ 13, Khu phố 6, Phường Hiệp Bình Phước,Thành phố Thủ Đức",HCM,Ho Chi Minh,Thu Duc,"10.8359812, 106.7140178",,
404,629,LAN - 229-230 QL1A,"229-230 QL1A, ấp 1, xã Thạnh Đức, huyện Bến Lức, tỉnh Long An.",Mekong1,Long An,Ben Luc,"10.6853322, 106.5928941",,
405,630,BDI - 666 Nguyễn Thái Học,"666 Nguyễn Thái Học, Phường Quang Trung, TP Quy Nhơn, Tỉnh Bình Định",Central2,Binh Dinh,Qui Nhon,"13.7556514, 109.2083638",,
406,631,HCM - 43V Cư Xá Phú Lâm D,"43V đường Cư Xá Phú Lâm D, Phường 10, Quận 6, TP.HCM",HCM,Ho Chi Minh,Quan 6,"10.7407453, 106.631654",,
407,632,BTR - 263 QL60,"263 Đường QL60, Khu Phố 2, Thị Trấn Mỏ Cày, Huyện Mỏ Cày Nam, Tỉnh Bến Tre",Mekong1,Ben Tre,Mo Cay Nam,"10.1271581, 106.3303391",,
408,633,LDO - 15 Ngô Quyền,"15 Ngô Quyền, phường 6, thành phố Đà Lạt, tỉnh Lâm Đồng",Highland1,Lam Dong,Da Lat,"11.951025, 108.4302554",,
409,634,LDO - Quốc Lộ 20,"Quốc lộ 20, thôn 7, xã Lộc An, Huyện Bảo Lâm, tỉnh Lâm Đồng.",Highland1,Lam Dong,Bao Lam,"11.5469553, 107.9011059",,
410,635,TNI - 404 đường 30/4,"404 đường 30/4, Phường 3, TP. Tây Ninh, Tỉnh Tây Ninh",SouthEast1,Tay Ninh,Tay Ninh,"11.3171485, 106.0986789",,
411,636,HNI - 340 - 342 Phan Trọng Tuệ,"340-342 đường Phan Trọng Tuệ, xã Thanh Liệt, huyện Thanh Trì, thành phố Hà Nội.",North,Ha Noi,Thanh Tri,"20.9583713, 105.8058046",,
412,637,HCM - 74 Đông Hưng Thuận 2,"74 Đông Hưng Thuận 2, Phường Đông Hưng Thuận, Quận 12, Thành Phố Hồ Chí Minh",HCM,Ho Chi Minh,Quan 12,"10.8347647, 106.6274116",,
413,638,BDU - 03-05 Tự Do,"03- 05 Tự Do, Khu phố 2, Thị trấn Dầu Tiếng, Huyện Dầu Tiếng, tỉnh Bình Dương",SouthEast2,Binh Duong,Dau Tieng,"11.2760507, 106.3596696",,
414,640,ĐTH - QL80 Khóm 1,"QL80 Khóm 1, TT. Lai Vung, H. Lai Vung, Đồng Tháp",Mekong2,Dong Thap,Lai Vung,"10.2881294, 105.6603526",,
415,641,ĐTH - K28 TL848,"K28 đường TL 848, Khóm Tân Hòa , Phường An Hòa , Tp. Sa Đéc, Tỉnh Đồng Tháp",Mekong2,Dong Thap,Sa Dec,"10.2406266, 105.7373303",,
416,642,BGI - Go! Bắc Giang,"Big C Bắc Giang, Xã Tân Tiến, Thành Phố Bắc Giang, Tỉnh Bắc Giang",North,Bac Giang,Bac Giang,"21.2665153, 106.2082415",,
417,643,NBI - Go! Ninh Bình,"Go Ninh Bình, đường Trần Nhân Tông, xã Ninh Phúc, thành phố Ninh Bình, tỉnh Ninh Bình.",North,Ninh Binh,Ninh Binh,"20.2418713, 106.0039674",,
418,644,TBI - Go! Thái Bình,"Go Thái Bình, đường Trần Thái Tông, phường Phú Khánh, tỉnh Thái Bình",North,Thai Binh,Thai Binh,"20.4395404, 106.3216529",,
419,647,DON - 530 Xa Lộ Hà Nội,"530 Xa Lộ Hà Nội, Khu phố 4, Phường Tân Hiệp, Thành phố Biên Hòa, Tỉnh Đồng Nai",SouthEast2,Dong Nai,Bien Hoa,"10.9546875, 106.8742551",,
420,648,HCM - B148Bis Nguyễn Văn Quá,"B148Bis Nguyễn Văn Quá, Khu phố 3, Phường Đông Hưng Thuận, Quận 12, Thành phố Hồ Chí Minh",HCM,Ho Chi Minh,Quan 12,"10.8421284, 106.6306439",,
421,649,DON - 4/4 Quốc lộ 20,"4/4 Quốc lộ 20, Ấp Chợ, Xã Phú Túc, Huyện Định Quán, Tỉnh Đồng Nai",SouthEast2,Dong nai,Dinh Quan,"11.0891253, 107.2042725",,
422,650,BNI - 71A đường Nguyễn Cao,"71A đường Nguyễn Cao, phường Ninh Xá, thành phố Bắc Ninh, tỉnh Bắc Ninh",North,Bac Ninh,Bac Ninh,"21.1769877, 106.0631028",,
423,651,BVT - D1 - 3/5 Nguyễn Hữu Cảnh,"D1 – 3/5 Nguyễn Hữu Cảnh, Trung tâm Đô thị Chí Linh, Phường Nguyễn An Ninh, Thành phố Vũng Tàu, Tỉnh Bà Rịa – Vũng Tàu",SouthEast2,Ba Ria - Vung Tau,Vung Tau,"10.3752487, 107.118283",,
424,653,TNI - 15 ĐT782,"15 đường ĐT782, ấp Phước Đức B, xã Phước Đông, huyện Gò Dầu, tỉnh Tây Ninh",SouthEast1,Tay Ninh,Go Dau,"11.1323094, 106.317811",,
425,654,YBA - 6 Nguyễn Thái Học,"6 đường Nguyễn Thái Học, phường Nguyễn Thái Học, thành phố Yên Bái, tỉnh Yên Bái",North,Yen Bai,Yen Bai,"21.7112941, 104.8868326",,
426,655,GLA - 841-843-845 Phạm Văn Đồng,"841-843-845 Phạm Văn Đồng, phường Yên Thế, Thành Phố Pleiku, Tỉnh Gia Lai",Highland3,Gia Lai,Pleiku,"14.0305031, 107.9891676",,
427,657,LDO - 78 Langbiang,"78 Langbiang, thị trấn Lạc Dương, huyện Lạc Dương, tỉnh Lâm Đồng",Highland1,Lam Dong,Lac Duong,"12.0089189, 108.4192722",,
428,659,HCM - 424A Nguyễn Thị Minh Khai,"424A Nguyễn Thị Minh Khai, P5, Q3, Thành phố Hồ Chí Minh",HCM,Ho Chi Minh,Quan 3,"10.7702222, 106.6858555",,
429,660,HCM - 85-87 Tây Thạnh,"85-87 Tây Thạnh, Phường Tây Thạnh, Quận Tân Phú, Thành Phố Hồ Chí Minh",HCM,Ho Chi Minh,Tan Phu,"10.8160334, 106.6255503",,
430,661,BGI - A16 Golden Mall,"Kiot A16 chân đế TTTM Golden Mall, Thị Trấn Thắng, Huyện Hiệp Hoà, Tỉnh Bắc Giang",North,Bac Giang,Hiep Hoa,"21.3548932, 105.9789625",,
431,662,HCM - 1842A Huỳnh Tấn Phát,"1842A Huỳnh Tấn Phát, Khu phố 6, Thị trấn Nhà Bè, Huyện Nhà Bè, Thành phố Hồ Chí Minh",HCM,Ho Chi Minh,Nha Be,"10.696546, 106.7393257",,
432,664,HCM - 383C – 383C Bis Minh Phụng,"383C – 383C Bis Minh Phụng, Phường 10, Quận 11, Thành phố Hồ Chí Minh.",HCM,Ho Chi Minh,Quan 11,"10.7610954, 106.6443638",,
433,667,QNG - 04 Nguyễn Trãi,"04 Nguyễn Trãi, Phường Nghĩa Lộ, TP Quảng Ngãi, Tỉnh Quảng Ngãi",Central2,Quang Ngai,Quang Ngai,"15.11246, 108.7934",,
434,669,ĐTH - 6A/TK Quốc Lộ 54,"6A/TK Quốc Lộ 54, ấp Tân Khánh, xã Tân Thành, huyện Lai Vung, tỉnh Đồng Tháp",Mekong2,Dong Thap,Lai Vung,"10.2627694, 105.5851592",,
435,670,NTH - 299 - 301 đường 21 tháng 8,"299 - 301 đường 21 tháng 8 phường Phước Mỹ, Phan Rang- Tháp Chàm, Ninh Thuận",Central1,Ninh Thuan,Thap Cham,"11.5848496, 108.9696257",,
436,671,DLK - 36 Tỉnh lộ 685,"36 tỉnh lộ 685, xã Ea bar, huyện Buôn Đôn, Tỉnh Đắk Lắk",Highland2,Dak Lak,Buon Don,"12.7587978, 107.9966671",,
437,672,HCM - A4/4A Trần Văn Giàu,"A4/4A Trần Văn Giàu, Ấp 1, xã Lê Minh Xuân, huyện Bình Chánh, Thành phố Hồ Chí Minh",HCM,Ho Chi Minh,Binh Chanh,"10.7621024, 106.5686263",,
438,673,HCM - 213 Linh Đông,"213 Linh Đông, KP3, phường Linh Đông, TP. Thủ Đức, Thành phố Hồ Chí Minh",HCM,Ho Chi Minh,Thu Duc,"10.8538198, 106.7488117",,
439,674,NTH - 119 QL1A,"119 Quốc lộ 1A, Thị trấn Phước Dân, Huyện Ninh Phước, Tỉnh Ninh Thuận",Central1,Ninh Thuan,Ninh Phuoc,"11.5404717, 108.9541311",,
440,678,ĐTH - 96-98 QL80,"96-98 QL80, khóm Phú Mỹ, thị trấn Cái Tàu Hạ, huyện Châu Thành, tỉnh Đồng Tháp.",Mekong2,Dong Thap,Chau Thanh,"10.2590813, 105.8734311",,
441,679,HUE - 39A Thạch Hãn,"39A Thạch Hãn, phường Thuận Hòa, thành phố Huế, tỉnh Thừa Thiên Huế",Central3,Hue,Hue,"16.469819, 107.569554",,
442,680,KHO - 26 Điện Biên Phủ,"26 Điện Biên Phủ, phường Vĩnh Hòa, thành phố Nha Trang, tỉnh Khánh Hòa",Central1,Khanh Hoa,Nha Trang,"12.2885656, 109.203296",,
443,681,DON - 2089 Quốc Lộ 1A,"2089 QL1A, Xuân Tâm, Xuân Lộc, Đồng Nai, Vietnam",SouthEast2,Dong Nai,Xuan Loc,"10.87891, 107.4404844","16.394065, 107.570791","10.879003168247346, 107.44046642195283"
444,682,HCM - 2090 Vĩnh Lộc,"2090 Vĩnh Lộc, Ấp 4, Xã Vĩnh Lộc B, huyện Bình Chánh, Thành phố Hồ Chí Minh",HCM,Ho Chi Minh,Binh Chanh,"10.8102356, 106.5743793",,
445,683,BDU - 101 Hùng Vương,"101, đường Hùng Vương , phường Mỹ Phước , thị xã Bến Cát , tỉnh Bình Dương",SouthEast2,Binh Duong,Ben cat,"11.1528869, 106.5900839",,
446,684,THO - 300 - 302 Trần Phú,"300 - 302 đường Trần Phú, phường Ba Đình, thành phố Thanh Hoá, tỉnh Thanh Hoá",North,Thanh Hoa,Thanh Hoa,"19.8038036, 105.7760031",,
447,685,HCM - B15/7 Quốc Lộ 50,"B15/7 Quốc Lộ 50, ấp 3A, Xã Bình Hưng, Huyện Bình Chánh, TP.HCM",HCM,Ho Chi Minh,Binh Chanh,"10.7187461, 106.6557742",,
448,686,HCM - 307B-307D Lê Quang Định,"307B-307D Lê Quang Định, Phường 7, Quận Bình Thạnh, Thành Phố Hồ Chí Minh",HCM,Ho Chi Minh,Binh Thanh,"10.8108407, 106.6914698",,
449,687,HCM - 9 – 11 – 13 Nguyễn Trãi,"9 – 11 – 13 Nguyễn Trãi, Phường Bến Thành, Quận 1, Thành phố Hồ Chí Minh",HCM,Ho Chi Minh,Quan 1,"10.7709185, 106.6930185",,
450,688,HCM - 172 Đặng Văn Ngữ,"172 Đặng Văn Ngữ, Phường 14, Quận Phú Nhuận, Thành Phố Hồ Chí Minh",HCM,Ho Chi Minh,Phu Nhuan,"10.7918584, 106.6675003",,
451,689,HAP-GO! Hải Phòng,"GO! Hải Phòng, Ngã 5 Sân Bay, 20 Khu đô thị mới, Đông Khê, quận Ngô Quyền, TP Hải Phòng",North,Hai Phong,Ngo Quyen,"20.8454971, 106.7074223",,
452,691,HCM - 2 Mã Lò,"02 đường Mã Lò, Khu phố 1, Phường Bình Trị Đông A, Quận Bình Tân, Thành phố Hồ Chí Minh",HCM,Ho Chi Minh,Binh Tan,"10.7582614, 106.6070165",,
453,692,HAG - J52 - J53,"J52 - J53 khu TTTM Thị Trấn Ngã Sáu, đường Hùng Vương, Huyện Châu Thành, Tỉnh Hậu Giang",Mekong2,Hau Giang,Chau Thanh,"9.9228468, 105.8037974",,
454,693,HCM - 121-135/1 Tân Kỳ Tân Quý,"121-135/1 Tân Kỳ Tân Quý, Phường Tân Sơn Nhì, Quận Tân Phú, Thành phố Hồ Chí Minh",HCM,Ho Chi Minh,Tan Phu,"10.8034178, 106.6325722",,
455,694,DNA - 08 Nguyễn Phan Vinh,"08 Nguyễn Phan Vinh, Phường Thọ Quang, Quận Sơn Trà, TP Đà Nẵng",Central2,Da Nang,Son Tra,"16.1009751, 108.2495187",,
456,695,HCM - 582 Kha Vạn Cân,"582 Đường Kha Vạn Cân, Phường Linh Đông, Thành phố Thủ Đức , Thành Phố Hồ Chí Minh",HCM,Ho Chi Minh,Thu Duc,"10.8407407, 106.7440194",,
457,696,LDO - 109-111 Đường 3/2,"109-111 đường 3/2, thị trấn Đạ Tẻh, huyện Đạ Tẻh, tỉnh Lâm Đồng",Highland1,Lam Dong,Da Teh,"11.507618, 107.485933",,
458,697,HCM - 158 Đặng Văn Bi,"158 Đặng Văn Bi, Khu phố 1, Phường Bình Thọ, Thành phố Thủ Đức, Thành phố Hồ Chí Minh",HCM,Ho Chi Minh,Thu Duc,"10.8469145, 106.7609468",,
459,698,BDU - 01 Đường NC,"01 Đường NC, Khu phố Đồng Sổ, Thị trấn Lai Uyên, Huyện Bàu Bàng, Tỉnh Bình Dương",SouthEast2,Binh Duong,Bau Bang,"11.2459075, 106.6212027",,
460,699,DLK - 112-114 Hùng Vương,"112-114 Hùng Vương, thị trấn Quảng Phú, huyện Cư M'gar, tỉnh Đắk Lắk",Highland2,Dak Lak,Cu M'gar,"12.816592, 108.0759394",,
461,700,HCM - 55B Phan Đăng Lưu,"55B Phan Đăng Lưu, Phường 07, Quận Phú Nhuận, Thành phố Hồ Chí Minh",HCM,Ho Chi Minh,Phu Nhuan,"10.8033327, 106.6892932",,
462,702,HCM - F2/29R - F3/221K2 Liên ấp 2-6,"F2/29R - F3/221K2 Liên ấp 2-6, ấp 6, Xã Vĩnh Lộc A, Huyện Bình Chánh, Thành phố Hồ Chí Minh",HCM,Ho Chi Minh,Binh Chanh,"10.8187967, 106.5617165",,
463,703,HCM - 9 Tăng Bạt Hổ,"9 Tăng Bạt Hổ, Phường 12, Quận 5, Thành phố Hồ Chí Minh",HCM,Ho Chi Minh,Quan 5,"10.7575647, 106.6619952",,
464,704,BDU - 44 Quốc Lộ 1K,"44 Quốc Lộ 1K, P. Đông Hoà, TP. Dĩ An, tỉnh Bình Dương",SouthEast2,Binh Duong,Di An,"10.8883627, 106.7765788",,
465,705,HCM - 964 Huỳnh Tấn Phát,"964 Huỳnh Tấn Phát, Phường Tân Phú, Quận 7, Thành phố Hồ Chí Minh.",HCM,Ho Chi Minh,Quan 7,"10.7257336, 106.7339058",,
466,706,QNA - 32 Quốc Lộ 1A Hương An,"07 Quốc lộ 1A, tổ dân phố Hương An, huyện Quế Sơn, tỉnh Quảng Nam",Central2,Quang Nam,Que Son,"15.829593, 108.2888082",,
467,708,HCM - D2/40B Đoàn Nguyễn Tuấn,"D2/40B đường Đoàn Nguyễn Tuấn, ấp 4, xã Hưng Long , Huyện Bình Chánh, TPHCM",HCM,Ho Chi Minh,Binh Chanh,"10.6583404, 106.6077218",,
468,709,TGI - 169/1 QL1A,"169/1 QL1A, ấp Tân Hòa, xã Tân Hương, huyện Châu Thành, Tiền Giang",Mekong1,Tien Giang,Chau Thanh,"10.4755709, 106.3613333",,
469,711,TNI - 438D-440 Bời Lời,"438D - 440 đường Bời Lời, khu phố Ninh Trung, phường Ninh Sơn, TP Tây Ninh, tỉnh Tây Ninh",SouthEast1,Tay Ninh,Tay Ninh,"11.3376845, 106.1152683",,
470,712,HNI - 22-24 Nguyễn Thái Học,"22-24 đường Nguyễn Thái Học, thị trấn Phùng, huyện Đan Phượng, thành phố Hà Nội",North,Ha Noi,Dan Phuong,"21.0865219, 105.6641422",,
471,713,QNG - Mỹ Lại,"Thửa đất 758, thôn Mỹ Lại, xã Tịnh Khê, TP Quảng Ngãi, Quảng Ngãi",Central2,Quang Ngai,Quang Ngai,"15.1894175, 108.8894372",,
472,714,DON - 20/83 Lê Đại Hành,"20/83 Lê Đại Hành, khu phố 12, phường Hố Nai, thành phố Biên Hoà, tỉnh Đồng Nai",SouthEast2,Dong Nai,Bien Hoa,"10.9652123, 106.8842311",,
473,715,HCM - 659 Hương Lộ 3,"659 Hương lộ 3, Khu phố 10, Phường Bình Hưng Hòa, Quận Bình Tân, Thành phố Hồ Chí Minh",HCM,Ho Chi Minh,Binh Tan,"10.8056402, 106.6084146",,
474,716,BDU - Hội Nghĩa,"xã Hội Nghĩa, Thị xã Tân Uyên, Tỉnh Bình Dương",SouthEast2,Binh Duong,Tan Uyen,"11.1005706, 106.767069",,
475,717,LAN - 5 Nguyễn Văn Siêu,"05 Nguyễn Văn Siêu, khu phố 2, thị trấn Bến Lức, huyện Bến Lức, tỉnh Long An",Mekong1,Long An,Ben Luc,"10.641628, 106.4859875",,
476,718,TNI - 138 Tôn Đức Thắng,"138 Tôn Đức Thắng, Phường Long Thành Trung, Thị Xã Hoà Thành, Tỉnh Tây Ninh",SouthEast1,Tay Ninh,Hoa Thanh,"11.2768586, 106.1300453",,
477,719,LDO - Liên Trung,"thửa đất số 821, tờ bản đồ số 7, thôn Liên Trung, xã Tân Hà, huyện Lâm Hà, tỉnh Lâm Đồng",Highland1,Lam Dong,Lam Ha,"11.7352449, 108.2021667",,
478,720,HCM - 191 Ni Sư Huỳnh Liên,"191 Ni Sư Huỳnh Liên, Phường 10, Quận Tân Bình, Thành phố Hồ Chí Minh",HCM,Ho Chi Minh,Tan Binh,"10.7845354, 106.6457493",,
479,721,NAN - Số 2 Quang Trung,"2 Quang Trung, phường Quang Trung, Thành phố Vinh, Nghệ An",North,Nghe An,Vinh,"18.66607, 105.674456",,
480,722,HCM - 73 Tỉnh Lộ 8,"73 Tỉnh Lộ 8, Xã Tân Thạnh Tây, Huyện Củ Chi, Thành phố Hồ Chí Minh",HCM,Ho Chi Minh,Cu Chi,"10.9838184, 106.5734572",,
481,723,DON - 114 Lý Thái Tổ,"114 Lý Thái Tổ, Ấp Trầu, Phước Thiền, Nhơn Trạch, Đồng Nai",SouthEast2,Dong Nai,Nhon Trach,"10.7585268, 106.941318",,
482,724,HCM - 170A Cư xá Bình Hòa,"170A Cư xá Bình Hòa, Nơ Trang Long, Phường 12, Quận Bình Thạnh, Thành phố Hồ Chí Minh",HCM,Ho Chi Minh,Binh Thanh,"10.8127085, 106.69659",,
483,725,TNI - 154-156 đường 30/4,"154-156 đường 30/4, khu phố 4, phường 3, TP Tây Ninh, tỉnh Tây Ninh",SouthEast1,Tay Ninh,Tay Ninh,"11.3005556, 106.1017776",,
484,726,BDU - DC79 đường DA6,"Ô 25 – 27, lô DC79, đường DA6, KDC Việt - Sing, Phường Thuận Giao, Thành phố Thuận An, Tỉnh Bình Dương",SouthEast2,Binh Duong,Thuan An,"10.9418498, 106.7186643",,
485,727,HCM - 783 Phan Văn Trị,"783 Phan Văn Trị, Phường 7, Quận Gò Vấp, Thành phố Hồ Chí Minh",HCM,Ho Chi Minh,Go Vap,"10.8284409, 106.6845335",,
486,728,GLA - 113 Hai Bà Trưng,"113A, 113B,113C Hai Bà Trưng, phường Diên Hồng, thành phố Pleiku, tỉnh Gia Lai",Highland3,Gia Lai,Pleiku,"13.9790709, 107.9927086",,
487,729,BDU - 4/4 Thủ Khoa Huân,"04/4 đường Thủ Khoa Huân, Khu Phố Bình Phước A, Phường Bình Chuẩn, Thành Phố Thuận An, Tỉnh Bình Dương.",SouthEast2,Binh Duong,Thuan An,"10.9838047, 106.7243026",,
488,730,STR - 1 Mai Thanh Thế,"1, Đường Mai Thanh Thế, khóm 1, phường 1, TX. Ngã Năm, tỉnh Sóc Trăng",Mekong2,Soc Trang,Nga Nam,"9.564437999999999, 105.5976781",,
489,731,HCM - 451/2A Đào Cử,"451/2A Đào Cử, Khu phố Miễu Nhì, Thị trấn Cần Thạnh, Huyện Cần Giờ, Thành phố Hồ Chí Minh",HCM,Ho Chi Minh,Can Gio,"10.4112457, 106.9658999",,
490,732,HCM - 546 Nguyễn Văn Tạo,"546 Nguyễn Văn Tạo, Ấp 1, xã Long Thới, huyện Nhà Bè, Thành phố Hồ Chí Minh",HCM,Ho Chi Minh,Nha Be,"10.6590934, 106.7275134",,
491,733,HUE - 1 Trần Phú,"01 Trần Phú, phường Phước Vĩnh, Thành phố Huế",Central3,Hue,Hue,"16.4555688, 107.5925793",,
492,734,HCM - 686 Trường Chinh,"686 Trường Chinh, Phường 15, Quận Tân Bình, Thành Phố Hồ Chí Minh",HCM,Ho Chi Minh,Tan Binh,"10.8140865, 106.632996",,
493,736,DON - 36/3 DT763,"36/3 DT763, ấp 1, xã Suối Nho, huyện Định Quán, tỉnh Đồng Nai",SouthEast2,Dong Nai,Dinh Quan,"11.0420159, 107.2781959",,
494,737,HUE - 35 Hà Nội,"35 Hà Nội, phường Phú Nhuận, thành phố Huế, tỉnh Thừa Thiên Huế",Central3,Hue,Hue,"16.4637361, 107.593997",,
495,738,ĐTH - Gò Tháp,"Gò Tháp, khóm 3, thị trấn Mỹ An, huyện Tháp Mười, tỉnh Đồng Tháp",Mekong2,Dong Thap,Thap Muoi,"10.5261412, 105.8455387",,
496,739,HCM - 21 Đường 154,"Số 21 Đường 154, Phường Tân Phú, Thành phố Thủ Đức, Thành phố Hồ Chí Minh",HCM,Ho Chi Minh,Thu Duc,"10.8678377, 106.8054166",,
497,740,DON - 93 Vũ Hồng Phô,"93 Vũ Hồng Phô, Khu phố 2, Phường Bình Đa, Thành phố Biên Hòa, Tỉnh Đồng Nai",SouthEast2,Dong Nai,Bien Hoa,"10.9359352, 106.8612623",,
498,741,NTH - 153 Hải Thượng Lãn Ông,"153 Hải Thượng Lãn Ông, phường Đông Hải, thành phố Phan Rang Tháp Chàm, Ninh Thuận",Central1,Ninh Thuan,Thap Cham,"11.5485688, 109.0233635",,
499,742,ĐTH - QL30,"QL 30, Ấp Bình Chánh, Xã Bình Thành, Huyện Thanh Bình, Tỉnh Đồng Tháp.",Mekong2,Dong Thap,Thanh Binh,"10.5366338, 105.540475",,
500,743,HCM - 597 Lê Văn Việt,"597 Lê Văn Việt, Khu phố 5, Phường Tăng Nhơn Phú A, Thành phố Thủ Đức, Thành phố Hồ Chí Minh.",HCM,Ho Chi Minh,Thu Duc,"10.8467149, 106.7986072",,
501,744,HCM - G16/21 Trần Đại Nghĩa,"G16/21 Trần Đại Nghĩa, Ấp 7, Xã Lê Minh Xuân, Huyện Bình Chánh, Thành phố Hồ Chí Minh",HCM,Ho Chi Minh,Binh Chanh,"10.7604576, 106.5695589",,
502,745,DON - 344F TL768,"344F, Tỉnh lộ 768, ấp Bình Phước, xã Tân Bình, huyện Vĩnh Cửu, tỉnh Đồng Nai",SouthEast2,Dong Nai,Vinh Cuu,"10.9990493, 106.8090657",,
503,746,HNI - 16B-4 Nguyễn Văn Lộc,"16B-4 phố Nguyễn Văn Lộc, phường Mộ Lao, quận Hà Đông, thành phố Hà Nội",North,Ha Noi,Ha Dong,"20.982912, 105.7892489",,
504,747,HNI - GO! Thăng Long,"Go! Thăng Long, 222 đường Trần Duy Hưng, Trung Hòa, Cầu Giấy, Hà Nội",North,Ha Noi,Cau Giay,"21.007402, 105.7932272",,
505,748,DLK - 180 Nguyễn Tất Thành,"180 Nguyễn Tất Thành, thị trấn Krông Kmar, huyện Krông Bông, tỉnh Đắk Lắk.",Highland2,Dak Lak,Krong Bong,"12.5075773, 108.3356312",,
506,749,LDO - 81 Mê Linh,"81 Mê Linh, Phường 9, Thành phố Đà Lạt, Lâm Đồng",Highland1,Lam Dong,Da Lat,"11.956337, 108.4701114",,
507,750,QBI - 01 Tây Hồ,"01 Tây Hồ, thị trấn Kiến Giang, huyện Lệ Thủy, tỉnh Quảng Bình",Central3,Quang Binh,Le Thuy,"17.2217716, 106.7932753",,
508,751,BVT - 177 Nguyễn Hữu Cảnh,"177 Nguyễn Hữu Cảnh, Phường Thắng Nhất, Thành phố Vũng Tàu, Tỉnh Bà Rịa – Vũng Tàu",SouthEast2,Ba Ria - Vung Tau,Vung Tau,"10.3872791, 107.1070907",,
509,752,CTO - 166 Cách Mạng Tháng 8,"166 Đường Cách Mạng Tháng 8, P. Cái Khế, Q. Ninh Kiều, Tp. Cần Thơ",Mekong2,Can Tho,Ninh Kieu,"10.0518955, 105.7739217",,
510,753,HAP - 70 Trần Hưng Đạo,"70 đường Trần Hưng Đạo, thị trấn Núi Đèo, huyện Thủy Nguyên, thành phố Hải Phòng",North,Hai Phong,Thuy Nguyen,"20.9210484, 106.6802219",,
511,754,TNI - 134 Trưng Nữ Vương,"134 Trưng Nữ Vương, Khu phố 1, Phường 2, Thành phố Tây Ninh, tỉnh Tây Ninh",SouthEast1,Tay Ninh,Tay Ninh,"11.3093208, 106.0885864",,
512,755,HCM - 978 Tỉnh Lộ 15,"978 Tỉnh Lộ 15, ấp Chợ Cũ, xã An Nhơn Tây, huyện Củ Chi, Thành phố Hồ Chí Minh",HCM,Ho Chi Minh,Cu Chi,"11.0916362, 106.5132481",,
513,756,QNG - 458-460 Nguyễn Nghiêm,"458-460 Nguyễn Nghiêm, thị xã Đức Phổ, huyện Đức Phổ, tỉnh Quảng Ngãi",Central2,Quang Ngai,Duc Pho,"14.8119148, 108.9558041",,
514,757,DNA - 90 Võ Chí Công,"90 Võ Chí Công, P. Hoà Xuân, Q. Cẩm Lệ, TP Đà Nẵng",Central2,Da Nang,Cam Le,"16.0049266, 108.2227243",,
515,758,HCM - 50B Tây Lân,"50B Tây Lân, Khu phố 7, Phường Bình Trị Đông A, Quận Bình Tân, Thành phố Hồ Chí Minh.",HCM,Ho Chi Minh,Binh Tan,"10.7717559, 106.586468",,
516,760,TNI - 483 đường 30 tháng 4,"483 đường Ba Mươi Tháng 4, khu phố 1, Phường 1, Thành phố Tây Ninh, tỉnh Tây Ninh",SouthEast1,Tay Ninh,Tay Ninh,"11.3265289, 106.103799",,
517,761,HCM - 257 Nguyễn Thị Đặng,"257 Nguyễn Thị Đặng (số cũ 257 TTH22), Khu Phố 2, Phường Tân Thới Hiệp, Quận 12, TP. Hồ Chí Minh",HCM,Ho Chi Minh,Quan 12,"10.863122, 106.6402578",,
518,762,BDU - 802 DB4,"thửa đất số 802, tờ bản đồ số 20, đường DB4, khu phố 4, Phường Vĩnh Tân, Thị xã Tân Uyên, Tỉnh Bình Dương.",SouthEast2,Binh Duong,Tan Uyen,"11.1228724, 106.7045389",,
519,763,HCM - 218 Thành Thái,"218 Thành Thái, Phường 12, Quận 10, Thành phố Hồ Chí Minh",HCM,Ho Chi Minh,Quan 10,"10.7682631, 106.6667135",,
520,764,HCM - 94 Châu Văn Liêm,"94 Châu Văn Liêm, Phường 11, Quận 5, Thành phố Hồ Chí Minh",HCM,Ho Chi Minh,Quan 5,"10.752895, 106.6589955",,
521,765,DLK - 68 Trần Hưng Đạo,"68 Trần Hưng Đạo, phường An Lạc, thị xã Buôn Hồ, tỉnh Đắk Lắk.",Highland2,Dak Lak,Buon Ho,"12.9178608, 108.2675922",,
522,766,DNA - 81 - 83 Nguyễn Văn Linh,"81-83 Nguyễn Văn Linh, Phường Phước Ninh, Q.Hải Châu, TP Đà Nẵng",Central2,Da Nang,Hai Chau,"16.0605978, 108.2197271",,
523,767,STR - Nam Sông Hậu,"Nam Sông Hậu, Ấp Đầu Giồng, TT. Trần Đề, Huyện Trần Đề, Tỉnh Sóc Trăng",Mekong2,Soc Trang,Tran De,"9.5273477, 106.1882094",,
524,768,HCM - 15-17-19 Đường số 1,"15-17-19 Đường số 1, Khu Phố 4, Phường An Lạc A, Quận Bình Tân, Thành phố Hồ Chí Minh",HCM,Ho Chi Minh,Binh Tan,"10.74346, 106.6178269",,
525,769,DLK - 2 tỉnh lộ 5,"2 tỉnh lộ 5, xã Cư Ê Bur, thành phố Buôn Ma Thuột, Đắk Lắk",Highland2,Dak Lak,Buon Me Thuot,"12.6951622, 108.0287117",,
526,770,VLO - Đường số 7,"Đường số 7, Khu đô thị mới Song Phú, ấp Phú Ninh, xã Song Phú, huyện Tam Bình, tỉnh Vĩnh Long",Mekong2,Vinh Long,Tam Binh,"10.1166073, 105.9008096",,
527,771,BDU - 130 Nguyễn Thị Minh Khai,"130 Nguyễn Thị Minh Khai, khu phố Tân Long, phường Tân Đông Hiệp, thị xã Dĩ An, tỉnh Bình Dương",SouthEast2,Binh Duong,Di An,"10.916425, 106.7530321",,
528,772,KTU - 473 Hùng Vương,"473 Hùng Vương, tổ dân phố 4A, thị trấn Đắk Hà, Huyện Đắk Hà, tỉnh Kon Tum",Highland3,Kon Tum,Dak Ha,"14.515156, 107.9197026",,
529,774,HCM - 129-129A Huỳnh Văn Bánh,"129 - 129A Huỳnh Văn Bánh, Phường 11, Quận Phú Nhuận, TP. Hồ Chí Minh",HCM,Ho Chi Minh,Phu Nhuan,"10.7908918, 106.6741387",,
530,776,HCM - 56A Đường số 2,"56A Đường số 2, Khu phố 8, Phường Trường Thọ, Thành phố Thủ Đức, Thành phố Hồ Chí Minh",HCM,Ho Chi Minh,Thu Duc,"10.8349478, 106.7546451",,
531,777,HCM - 760 Xô Viết Nghệ Tĩnh,"760 Xô Viết Nghệ Tĩnh, Phường 25, Quận Bình Thạnh, Thành Phố Hồ Chí Minh",HCM,Ho Chi Minh,Binh Thanh,"10.8123398, 106.7155568",,
532,778,HCM - C38 Dương Quảng Hàm,"C38 Dương Quảng Hàm, Phường 07, Quận Gò Vấp, Thành phố Hồ Chí Minh",HCM,Ho Chi Minh,Go Vap,"10.8296599, 106.6885999",,
533,779,HCM - 4423 Nguyễn Cửu Phú,"4423 Nguyễn Cửu Phú, Khu Phố 4, Phường Tân Tạo A, Quận Bình Tân, Thành Phố Hồ Chí Minh",HCM,Ho Chi Minh,Binh Tan,"10.7558072, 106.5866384",,
534,783,HCM - 27/4A Đỗ Văn Dậy,"27/4A đường Đỗ Văn Dậy, Ấp Tân Thới 1, Xã Tân Hiệp, Huyện Hóc Môn, Thành Phố Hồ Chí Minh",HCM,Ho Chi Minh,Hoc Mon,"10.9013674, 106.5999369",,
535,785,HCM - 83 Đường số 8,"Số 83 Đường số 8, Khu phố 1, Phường Linh Xuân, Thành Phố Thủ Đức, Thành Phố Hồ Chí Minh",HCM,Ho Chi Minh,Thu Duc,"10.8789197, 106.7751371",,
536,786,VLO - 60/45D Thống Chế Điều Bát,"60/45D Đường Thống Chế Điều Bát, Khu 3, thị trấn Trà Ôn, huyện Trà Ôn, tỉnh Vĩnh Long.",Mekong2,Vinh Long,Tra On,"9.9623982, 105.9292198",,
537,787,DNK - 325 Nguyễn Tất Thành,"325 Nguyễn Tất Thành, thị trấn Ea T'ling, huyện Cư Jút, tỉnh Đắk Nông.",Highland2,Dak Nong,Cu Jut,"12.5898407, 107.896767",,
538,788,DON - 82A Nguyễn Phúc Chu,"82A Nguyễn Phúc Chu, Phường Trảng Dài, Thành phố Biên Hòa, Tỉnh Đồng Nai.",SouthEast2,Dong Nai,Bien Hoa,"10.9802896, 106.8547895",,
539,789,DON - 372 Bắc Sơn – Long Thành,"372 Bắc Sơn – Long Thành, thôn Đông Bình, Ấp Bùi Chu, Xã Bắc Sơn, Huyện Trảng Bom, tỉnh Đồng Nai.",SouthEast2,Dong Nai,Trang Bom,"10.9528334, 106.9532936",,
540,790,LAN - 101 Quốc lộ N2,"101, đường QL N2, ấp Bình Thủy, xã Hòa Khánh Đông, huyện Đức Hòa, tỉnh Long An",Mekong1,Long An,Duc Hoa,"10.8928024, 106.3933083",,
541,791,QTR - 36 Lê Duẫn,"36 Lê Duẫn, khóm Hữu Nghị, thị trấn Hồ Xá, huyện Vĩnh Linh, tỉnh Quảng Trị",Central3,Quang Tri,Vinh Linh,"17.0633593, 107.0155599",,
542,792,HCM - A009 120-120B Ngô Tất Tố,"A009 Lô A (tầng trệt) chung cư, số 120-120B Ngô Tất Tố, Phường.19, Quận Bình Thạnh, TPHCM",HCM,Ho Chi Minh,Binh Thanh,"10.7924389, 106.7126125",,
543,793,KHO - Thôn Dầu Sơn,"Thửa đất số 236, tờ bản đồ số 24, thôn Dầu Sơn, xã Suối Tân, huyện Cam Lâm, tỉnh Khánh Hòa.",Central1,Khanh Hoa,Cam Lam,"12.1527205, 109.0705837",,
544,794,DON - 771 Hùng Vương,"771 Hùng Vương, tổ 10, ấp 1, xã Long Thọ, huyện Nhơn Trạch, tỉnh Đồng Nai.",SouthEast2,Dong Nai,Nhon Trach,"10.7589071, 106.9426427",,
545,795,HCM - 223 Hưng Nhơn,"223 Đường Hưng Nhơn, Ấp 3, Xã Tân Kiên, Huyện Bình Chánh, Thành Phố Hồ Chí Minh",HCM,Ho Chi Minh,Binh Chanh,"10.7127164, 106.5932824",,
546,796,PYN - 222-224 Phạm Văn Đồng,"222-224 Phạm Văn Đồng, khu phố Long Hải Nam, Phường Xuân Phú, TX Sông Cầu, Tỉnh Phú Yên",Central2,Phu Yen,Song Cau,"13.5809065, 109.1991932",,
547,798,TVI - 172-174 Đường 30/4,"172-174, Đường 30/4, Khóm 4, Thị trấn Cầu Kè, Huyện Cầu Kè, Tỉnh Trà Vinh",Mekong2,Tra Vinh,Cau Ke,"9.870264599999999, 106.0610787",,
548,800,DNA - 1390 Quảng Xương,"Thửa đất số 1390, tờ bản đồ số 7, đường Quảng Xương, thôn Túy Loan, xã Hòa Phong, huyện Hòa Vang, thành phố Đà Nẵng",Central2,Da Nang,Hoa Vang,"15.9966357, 108.1370171",,
549,801,DON - 19/68 đường 643,"19/68 đường 643 – Xa lộ Hà Nội, Khu phố 1, Phường Long Bình, Thành phố Biên Hòa, Tỉnh Đồng Nai.",SouthEast2,Dong Nai,Bien Hoa,"10.9543822, 106.8749513",,
550,802,KHO - 182 Trần Quý Cáp,"182 Trần Quý Cáp, phường Ninh Hiệp, thị xã Ninh Hòa, tỉnh Khánh Hòa",Central1,Khanh Hoa,Ninh Hoa,"12.4947608, 109.1320424",,
551,804,HCM - 71 Thạnh Lộc 16,"71 Thạnh Lộc 16, Phường Thạnh Lộc, Quận 12, TP Hồ Chí Minh",HCM,Ho Chi Minh,Quan 12,"10.86567, 106.684019",,
552,805,DNA - 16-B4.1 Nguyễn Hữu Thọ,"16-B4.1, tờ bản đồ số 464/98 ĐC-ND, đường Nguyễn Hữu Thọ, phường Khuê Trung, Quận Cẩm Lệ, thành phố Đà Nẵng",Central2,Da Nang,Cam Le,"16.0289739, 108.2087449",,
553,807,QTR - 217 - 219 Trần Hưng Đạo,"217-219 Trần Hưng Đạo, phường 2, thị xã Quảng Trị, tỉnh Quảng Trị",Central3,Quang Tri,Quang Tri,"16.7497006, 107.1851372",,
554,808,LDO - 12 Nguyễn Công Trứ,"12 Nguyễn Công Trứ, phường 8, Thành phố Đà Lạt tỉnh Lâm Đồng",Highland1,Lam Dong,Da lat,"11.9547603, 108.4419007",,
555,810,BDU - 103 Quốc Lộ 13,"Thửa đất số 103, tờ bản đồ số 26, đường Quốc Lộ 13, Phường Tân Định, thị xã Bến Cát, Tỉnh Bình Dương.",SouthEast2,Binh Duong,Ben cat,"11.046769, 106.6334362",,
556,811,HCM - 159 Tăng Nhơn Phú,"159 đường Tăng Nhơn Phú , Khu phố 3, Phường Phước Long B, Thành phố Thủ Đức, Thành phố Hồ Chí Minh",HCM,Ho Chi Minh,Thu Duc,"10.83141, 106.7754724",,
557,812,CTO - 222 Nguyễn Hiền,"222 Đường Nguyễn Hiền, Phường An Khánh, Quận Ninh Kiều, Thành phố Cần Thơ",Mekong2,Can Tho,Ninh Kieu,"10.0214041, 105.7543324",,
558,813,DLK - 48 Hùng Vương,"48 Hùng Vương, tổ dân phố hòa Bình, thị trấn Ea Súp, huyện Ea súp, tỉnh Đắk Lắk.",Highland2,Dak Lak,Ea Sup,"13.0609341, 107.8880075",,
559,815,BGI - 315 Thân Cảnh Phúc,"315 đường Thân Cảnh Phúc Tổ dân phố Trần Hưng Đạo, thị trấn Chũ, huyện Lục Ngạn, tỉnh Bắc Giang",North,Bac Giang,Luc Ngan,"21.3679584, 106.5641566",,
560,816,DON - 292 Hùng Vương,"292 Hùng Vương, Khu phố Phước Kiểng, Thị trấn Hiệp Phước, Huyện Nhơn Trạch, tỉnh Đồng Nai",SouthEast2,Dong Nai,Nhon Trach,"10.7415783, 106.9455332",,
561,817,DON - 376 Hoàng Bá Bích,"376 Hoàng Bá Bích, Khu phố 5A, Phường Long Bình, Thành phố Biên Hoà, Tỉnh Đồng Nai",SouthEast2,Dong Nai,Bien Hoa,"10.9405466, 106.879629",,
562,818,BPH - 69 DT757,"Thửa đất số 69, Tờ bản đồ 12, ĐT 757, Thôn Tân Lực, Xã Bù Nho, Huyện Phú Riềng, Tỉnh Bình Phước.",SouthEast2,Binh Phuoc,Phu Rieng,"11.7441522, 106.8145782",,
563,819,BVT - 2/8 Đường Võ Thị Sáu,"2/8, Đường Võ Thị Sáu, Khu phố Hải Tân, Thị trấn Phước Hải, Huyện Đất Đỏ, Tỉnh Bà Rịa-Vũng Tàu",SouthEast2,Ba Ria - Vung Tau,Dat Do,"10.432879, 107.2928725",,
564,820,AGI - 224 Nguyễn Thị Hạnh,"Số 224, Nguyễn Thị Hạnh, TT. Óc Eo, huyện Thoại Sơn, tỉnh An Giang",Mekong2,An Giang,Thoai Son,"10.2549743, 105.1553466",,
565,821,BDU - 4650 đường DB8,"Thửa 4650, tờ bản đồ số: 58, đường DB8, khu đô thị Mỹ Phước 2, phường Mỹ Phước, thị xã Bến Cát, tỉnh Bình Dương.",SouthEast2,Binh Duong,Ben Cat,"11.1468672, 106.6079808",,
566,822,LDO - 4A - 4C Hải Thượng,"4A-4C Hải Thượng, phường 06, thành phố Đà Lạt, tỉnh Lâm Đồng",Highland1,Lam Dong,Da lat,"11.9416831, 108.4318538",,
567,824,BDU - 12 DT741,"số 12, Đường DT741, Khu Phố 3, Thị Trấn Tân Bình, Huyện Bắc Tân Uyên, Tỉnh Bình Dương",SouthEast2,Binh Duong,Tan Uyen,"11.2261661, 106.7283742",,
568,825,HCM - 460 - 462 Cách Mạng Tháng 8,"460 - 462 Cách Mạng Tháng 8, Phường 11, Quận 3, Thành phố Hồ Chí Minh",HCM,Ho Chi Minh,Quan 3,"10.7844925, 106.6694264",,
569,827,HDU - 413 Trần Hưng Đạo,"413 đường Trần Hưng Đạo, ngã tư Phụ Sơn, phường An Lưu, thị xã Kinh Môn, tỉnh Hải Dương",North,Hai Duong,Kinh Mon,"20.9981976, 106.5418184",,
570,828,DON - 02 Trần Văn Xã,"02 Trần Văn Xã, Khu phố 3A, Phường Trảng Dài, Thành phố Biên Hoà, Tỉnh Đồng Nai",SouthEast2,Dong Nai,Bien Hoa,"10.9854533, 106.8664108",,
571,829,TNI - 339 Hoàng Lê Kha,"Số thửa 339, tờ bản đồ 12, đường Hoàng Lê Kha, tổ 11, Khu Phố 3, Thị Trấn Châu Thành, huyện Châu Thành, tỉnh Tây Ninh",SouthEast1,Tay Ninh,Chau Thanh,"11.3120314, 106.0275819",,
572,830,QBI - 1 Lý Thường Kiệt,"1 Lý Thường Kiệt, khu phố 1, phường Ba Đồn, thị xã Ba Đồn, tỉnh Quảng Bình",Central3,Quang Binh,Ba Don,"17.7555407, 106.4199755",,
573,832,HCM - 350 Phạm Thế Hiển,"350 Phạm Thế Hiển, Phường 5, Quận 8, Thành phố Hồ Chí Minh",HCM,Ho Chi Minh,Quan 8,"10.741405, 106.6581222",,
574,833,BDU - 41 DT741,"41 Khu phố 3, Đường ĐT741, phường Chánh Phú Hòa, thị xã Bến Cát, tỉnh Bình Dương.",SouthEast2,Binh Duong,Ben Cat,"11.148719, 106.6708195",,
575,834,HCM - 91/4B Hà Huy Giáp,"91/4B Hà Huy Giáp, Khu Phố 3, Phường Thạnh Xuân, Quận 12, Thành phố Hồ Chí Minh",HCM,Ho Chi Minh,Quan 12,"10.8747577, 106.6766218",,
576,836,QNA - 236 Phạm Văn Đồng,"236 Phạm Văn Đồng, thị trấn Núi Thành, huyện Núi Thành, tỉnh Quảng Nam",Central2,Quang Nam,Nui Thanh,"15.4356332, 108.6441488",,
577,837,HCM - 14/5 Đặng Thúc Vịnh,"14/5 đường Đặng Thúc Vịnh, Ấp Trung Đông 1, Xã Thới Tam Thôn, Huyện Hóc Môn, Thành phố Hồ Chí Minh",HCM,Ho Chi Minh,Hoc Mon,"10.8915879, 106.6152809",,
578,838,KGI - Lô L10-12 QL61,"Lô L10-12 Đường QL61, Chợ và Khu Dân Cư, xã Định An, huyện Gò Quao, tỉnh Kiên Giang",Mekong2,Kien Giang,Go Quao,"9.7654101, 105.3147698",,
579,839,VLO - 478-480 Lưu Nhơn Sâm,"478-480, đường Lưu Nhơn Sâm, Khóm Đông Thuận, phường Đông Thuận, Thị xã Bình Minh, Tỉnh Vĩnh Long.",Mekong2,Vinh Long,Binh Minh,"10.0449259, 105.8359947",,
580,840,VLO - 12 Phan Văn Đáng,"12 đường Phan Văn Đáng, Khóm 1, Thị trấn Tam Bình, Huyện Tam Bình, Tỉnh Vĩnh Long",Mekong2,Vinh Long,Tam Binh,"10.0476856, 105.9992394",,
581,841,BVT - 189 Đường 328,"189, Đường 328, Ấp 4, Tổ 9, Xã Hòa Bình, Huyện Xuyên Mộc, Tỉnh Bà Rịa Vũng Tàu",SouthEast2,Ba Ria - Vung Tau,Xuyen Moc,"10.6277749, 107.3717281",,
582,843,HCM - 168 đường Lê Đình Cẩn,"168 đường Lê Đình Cẩn, khu phố 6, phường Tân Tạo, Quận Bình Tân, Thành phố Hồ Chí Minh",HCM,Ho Chi Minh,Binh Tan,"10.7605236, 106.5995576",,
583,844,BTR - Nguyễn Thị Định,"Đường Nguyễn Thị Định, Khu phố 2, Thị trấn Giồng Trôm, Huyện Giồng Trôm, Tỉnh Bến Tre",Mekong1,Ben Tre,Giong Trom,"10.1751757, 106.50538",,
584,845,HUE - 1136 - 1138 Nguyễn Tất Thành,"1136-1138 Nguyễn Tất Thành, phường Phú Bài, thị xã Hương Thuỷ, tỉnh Thừa Thiên Huế",Central3,Hue,Huong Thuy,"16.4087338, 107.677563",,
585,846,DLK - 211 Mai Hắc Đế,"211 Mai Hắc Đế, phường Tân Thành, thành phố Buôn Ma Thuột, tỉnh Đắk Lắk",Highland2,Dak Lak,Buon Me Thuot,"12.6685172, 108.0257657",,
586,847,HCM - 176 Gò Dầu,"176 Gò Dầu, Phường Tân Quý, Quận Tân Phú, Thành phố Hồ Chí Minh",HCM,Ho Chi Minh,Tan Phu,"10.79589, 106.621958",,
587,849,KGI - 265 đường QL80,"265 đường QL80, tổ 10, khu phố Kiên Tân, thị trấn Kiên Lương, huyện Kiên Lương, tỉnh Kiên Giang",Mekong2,Kien Giang,Kien Luong,"10.2773893, 104.6299697",,
588,850,HCM - 619 Tô Ngọc Vân,"619 Tô Ngọc Vân, Khu Phố 04, Phường Tam Bình, Thành Phố Thủ Đức, Thành phố Hồ Chí Minh",HCM,Ho Chi Minh,Thu Duc,"10.8660717, 106.7392308",,
589,851,DON - 40 DT 764,"40 DT764, Ấp 9, Xã Sông Ray, Huyện Cẩm Mỹ, Tỉnh Đồng Nai",SouthEast2,Dong Nai,Cam My,"10.7629511, 107.3353083",,
590,853,HAP - 22 Tổ 4 An Dương,"Số 22 Tổ 4, Thị Trấn An Dương, Huyện An Dương, Thành Phố Hải Phòng",North,Hai Phong,An Duong,"20.8573864, 106.6153154",,
591,854,TNI - 324 TL 785,"Thửa 324, tờ bản đồ 17, Tỉnh lộ 785,tổ 14, Ấp Tân Tây, Xã Tân Hưng, Huyện Tân Châu, Tỉnh Tây Ninh",SouthEast1,Tay Ninh,Tan Chau,"11.4888261, 106.1683813",,
592,855,HCM - 1647 TL10,"1647 Tỉnh lộ 10, Khu phố 5, Phường Tân Tạo A, Quận Bình Tân, Thành Phố Hồ Chí Minh",HCM,Ho Chi Minh,Binh Tan,"10.7586946, 106.5785443",,
593,868,KGI - Quốc Lộ 63,"Đường Quốc Lộ 63, Xã Thạnh Yên, Huyện U Minh Thượng, Tỉnh Kiên Giang",Mekong2,Kien Giang,U Minh Thuong,"9.6785263, 105.1146641",,
594,870,TNI - 120 đường 22B,"Thửa 120, tờ bản đồ 76, đường 22B, ấp Tân Hòa, xã Tân Lập, Thị Trấn Tân Biên, Huyện Tân Biên, Tỉnh Tây Ninh",SouthEast1,Tay Ninh,Tan Bien,"11.6053253, 105.987308",,
595,872,DLK - 350 Phan Bội Châu,"350 Phan Bội Châu, phường Thống Nhất, thành phố Buôn Ma Thuột, tỉnh Đắk Lắk, Phường Thống Nhất, Thành Phố Buôn Ma Thuột, Tỉnh Đắk Lắk",Highland2,Dak Lak,Buon Me Thuot,"12.6826835, 108.032995",,
596,873,NTH - 9D Nguyễn Văn Cừ,"9D Nguyễn Văn Cừ, phường Đài Sơn, thành phố Phan Rang-Tháp Chàm, tỉnh Ninh Thuận, Phường Đài Sơn, Thành Phố Phan Rang-Tháp Chàm, Tỉnh Ninh Thuận",Central1,Ninh Thuan,Thap Cham,"11.5783277, 108.9943933",,
597,874,BDI - 47 Trần Phú,"47 Trần Phú, thị trấn Diêu Trì, huyện Tuy Phước, tỉnh Bình Định, Thị Trấn Diêu Trì, Huyện Tuy Phước, Tỉnh Bình Định",Central2,Binh Dinh,Tuy Phuoc,"13.8018355, 109.1473689",,
598,878,DON - 144 Đinh Quang Ân,"144 Đinh Quang Ân, Ấp Hương Phước, Phường Phước Tân, Thành Phố Biên Hòa, Tỉnh Đồng Nai",SouthEast2,Dong Nai,Bien Hoa,"10.8885242, 106.9003499",,
599,880,DON - 28 Lý Văn Sâm,"28 Lý Văn Sâm, Phường Tam Hiệp, Thành Phố Biên Hòa, Tỉnh Đồng Nai",SouthEast2,Dong Nai,Bien Hoa,"10.9562433, 106.8576751",,
600,882,HNI - 147K Đội Cấn,"số 147K đường Đội Cấn, Phường Ngọc Hà, Quận Ba Đình, Thành Phố Hà Nội",North,Ha Noi,Ba Dinh,"21.0350008, 105.8249627",,
601,884,LAN - 159 - 160 N2,"Số 159-160 Đường Quốc Lộ N2, Xã Đức Lập Hạ, Huyện Đức Hòa, Tỉnh Long An",Mekong1,Long An,Duc Hoa,"10.8943622, 106.3926005",,
602,886,BPH - 23 ấp 07 Lộc Thái,"Số 23, tổ 01, ấp 7, Xã Lộc Thái, Huyện Lộc Ninh, Tỉnh Bình Phước",SouthEast2,Binh Phuoc,Loc Ninh,"11.810038, 106.639017",,
603,889,LAN - 15 ĐT833,"Số 15 đường ĐT833, Thị Trấn Tân Trụ, Huyện Tân Trụ, Tỉnh Long An",Mekong1,Long An,Tan Tru,"10.5137302, 106.5079408",,
604,891,DON - 55/7 Phạm Văn Đồng,"55/7 Phạm Văn Đồng, Xã Phước Thiền, Huyện Nhơn Trạch, Tỉnh Đồng Nai",SouthEast2,Dong Nai,Nhon Trach,"10.7521268, 106.9298795",,
605,893,HCM - 705 Nguyễn Thị Định,"705 Nguyễn Thị Định, Khu phố 2, Phường Cát Lái, Thành phố Thủ Đức, Thành Phố Hồ Chí Minh",HCM,Ho Chi Minh,Thu Duc,"10.7746365, 106.7691943",,
606,894,HNI - Go Lê Trọng Tấn,"BS 7+8+8 tầng hầng 1 TTTM Go! Lê Trọng Tấn, Phường Khương Mai, Quận Thanh Xuân, Thành Phố Hà Nội",North,Ha Noi,Thanh Xuan,"21.0001195, 105.8282741",,
607,896,BVT - 1129 KP Thị Vải,"Thửa đất số 1129, tờ bản đồ số 22, Tổ 02, Khu phố Thị Vải, Phường Mỹ Xuân, Thị Xã Phú Mỹ, Tỉnh Bà Rịa - Vũng Tàu",SouthEast2,Ba Ria - Vung Tau,Phu My,"10.6292126, 107.0636481",,
608,898,HCM - 98 Đường số 15,"98 đường số 15, khu phố 2, Phường Tân Kiểng, Quận 7, Thành Phố Hồ Chí Minh",HCM,Ho Chi Minh,Quan 7,"10.745574, 106.7067255",,
609,899,HCM - 54 Hồ Học Lãm,"54 Hồ Học Lãm, Phường 16, Quận 8, Thành Phố Hồ Chí Minh",HCM,Ho Chi Minh,Quan 8,"10.714815, 106.6157871",,
610,901,THO - 698 Trung Sơn,"DV-01:10 thửa đất số 698 tờ bản đồ số 08, Phường Trung Sơn, Thành Phố Sầm Sơn, Tỉnh Thanh Hóa",North,Thanh Hoa,Sam Son,"19.7315918, 105.8953306",,
611,903,BDU - 2009 đường D1,"Thửa đất 2009, tờ bản đồ 7TDH.2, đường D1, KP Đông An, Phường Tân Đông Hiệp, Thị Xã Dĩ An, Tỉnh Bình Dương",SouthEast2,Binh Duong,Di An,"10.9115169, 106.7821953",,
612,905,BPH - 21 QL14,"Thửa 21, Tờ bản đồ số 36, Đường Quốc Lộ 14, Khu Phố 4, Phường Tiến Thành, Thành Phố Đồng Xoài, Tỉnh Bình Phước",SouthEast2,Binh Phuoc,Dong Xoai,"11.5401863, 106.9168505",,
613,907,BPH - 24 ấp Tân Lợi,"Thửa đất số 24, tờ bản đồ 22, ấp Tân Lợi, Xã Tân Thành, Huyện Bù Đốp, Tỉnh Bình Phước",SouthEast2,Binh Phuoc,Bu Dop,"11.9391097, 106.71167",,
614,909,QNA - AI - AII Nguyễn Văn Trỗi,"số AI+AII, đường Nguyễn Văn Trỗi, phường Tân Thạnh, thành phố Tam Kỳ, tỉnh Quảng Nam, Phường Tân Thạnh, Thành Phố Tam Kỳ, Tỉnh Quảng Nam",Central2,Quang Nam,Tam Ky,"15.5917292, 108.4750678",,
615,911,AGI - Thành Thái,"Đường Thành Thái, Khóm Bình Khánh 6, Phường Bình Khánh, Thành Phố Long Xuyên, Tỉnh An Giang",Mekong2,An Giang,Long Xuyen,"10.3922087, 105.422492",,
616,912,DNA - 119 Nguyễn Văn Thoại,"119 Nguyễn Văn Thoại, Phường An Hải Đông, Quận Sơn Trà, Thành Phố Đà Nẵng",Central2,Da Nang,Son Tra,"16.0546661, 108.2400577",,
617,915,LCH - 49 Trần Hưng Đạo,"49 Đường Trần Hưng Đạo, Phường Đoàn Kết, Thành phố Lai Châu, Tỉnh Lai Châu",North,Lai Chau,Lai Chau,"22.3992783, 103.4578744",,
618,916,STR - 1 Phan Văn Hùng,"Số 01 Đường Phan Văn Hùng, Thị Trấn Kế Sách, Huyện Kế Sách, Tỉnh Sóc Trăng",Mekong2,Soc Trang,Ke Sach,"9.7700438, 105.9835571",,
619,917,BPH - 43 - 54 đường Sáu Tháng Một,"Thửa đất số 43; 54, tờ bản đồ số 37, Đường Sáu Tháng Một, khu phố 3, Phường Thác Mơ, Thị Xã Phước Long, Tỉnh Bình Phước",SouthEast2,Binh Phuoc,Phuoc Long,"11.8402566, 106.99343",,
620,918,TNI - 713 Điện Biên Phủ,"713 Điện Biên Phủ, khu phố Ninh Phước, Phường Ninh Thạnh, Thành Phố Tây Ninh, Tỉnh Tây Ninh",SouthEast1,Tay Ninh,Tay Ninh,"11.307855, 106.1324975",,
621,919,BPH - KP Ninh Phú,"Thửa đất số 06, tờ bản đồ số TĐ 38 -2019 và Thửa đất số 198, tờ bản đồ số 27, khu phố Ninh Phú, Thị Trấn Lộc Ninh, Huyện Lộc Ninh, Tỉnh Bình Phước",SouthEast2,Binh Phuoc,Loc Ninh,"11.8447783, 106.5901873",,
622,920,TNI - 298 - 300 Nguyễn Chí Thanh,"Số 298-300 đường Nguyễn Chí Thanh, Tổ 6, Khu phố 2, Thị Trấn Dương Minh Châu, Huyện Dương Minh Châu, Tỉnh Tây Ninh",SouthEast1,Tay Ninh,Duong Minh Chau,"11.3841689, 106.2291281",,
623,921,NBI - 764 - 766 Trần Hưng Đạo,"Số 764-766 đường Trần Hưng Đạo, phố Trung Nhì, Phường Tân Thành, Thành Phố Ninh Bình, Tỉnh Ninh Bình",North,Ninh Binh,Ninh Binh,"20.2614482, 105.9694863",,
624,922,DON - 265 TL767,"Thửa đất số 265, tờ bản đồ số 19, tỉnh lộ 767, thôn Tây Lạc, Ấp An Chu, Xã Bắc Sơn, Huyện Trảng Bom, Tỉnh Đồng Nai",SouthEast2,Dong Nai,Trang Bom,"10.9877496, 106.9665694",,
625,923,HCM - 54 - 56 đường số 3,"54 – 56 Đường số 3, khu dân cư Vĩnh Lộc, Phường Bình Hưng Hoà B, Quận Bình Tân, Thành Phố Hồ Chí Minh",HCM,Ho Chi Minh,Binh Tan,"10.8081212, 106.5902116",,
626,924,DON - 101 Nguyễn Tất Thành,"101 Nguyễn Tất Thành, Tổ 1, Khu phố 5, Thị Trấn Vĩnh An, Huyện Vĩnh Cửu, Tỉnh Đồng Nai",SouthEast2,Dong Nai,Vinh Cuu,"11.0922508, 107.0363409",,
627,926,DNK - 57 Nguyễn Tất Thành,"57 Nguyễn Tất Thành, thị trấn Đắk Mâm, huyện Krông Nô, tỉnh Đắk Nông, Thị Trấn Đắk Mâm, Huyện Krông Nô, Tỉnh Đắk Nông",Highland2,Dak Nong,Krong No,"12.4667861, 107.8622635",,
628,928,BVT - 521 Đường số 6,"Thửa đất số 521, tờ bản đồ số 8, đường số 6, thôn Vĩnh Sơn, Xã Nghĩa Thành, Huyện Châu Đức, Tỉnh Bà Rịa - Vũng Tàu",SouthEast2,Ba Ria - Vung Tau,Chau Duc,"10.5913159, 107.2084109",,
629,929,DON - 08 Tổ 2,"08, Tổ 2, Khu phố 2, Phường Long Bình Tân, Thành Phố Biên Hòa, Tỉnh Đồng Nai",SouthEast2,Dong Nai,Bien Hoa,"10.8969109, 106.8672365",,
630,930,BDU - 24A Cách Mạng Tháng Tám,"Thửa đất số 24a, tờ bản đồ C3, đường Cách Mạng Tháng Tám, Khu phố Thạnh Lợi, Phường An Thạnh, Thành phố Thuận An, Tỉnh Bình Dương",SouthEast2,Binh Duong,Thuan An,"10.9467186, 106.6893561",,
631,931,LAN - 50 - 52 CMT8,"Số 50-52 Đường Cách Mạng Tháng Tám, Khu phố 1, Thị Trấn Vĩnh Hưng, Huyện Vĩnh Hưng, Tỉnh Long An",Mekong1,Long An,Vinh Hung,"10.8854398, 105.7912491",,
632,932,DON - 53 Nguyễn Khắc Hiếu,"53 Nguyễn Khắc Hiếu, Khu phố Long Đức 1, Phường Tam Phước, Thành Phố Biên Hòa, Tỉnh Đồng Nai",SouthEast2,Dong Nai,Bien Hoa,"10.8683254, 106.967059",,
633,934,LAN - 4/1 KII ô 2 Phan Văn Tình,"Số 4/1 KII Ô2 Đường Phan Văn Tình, Thị Trấn Thủ Thừa, Huyện Thủ Thừa, Tỉnh Long An",Mekong1,Long An,Thu Thua,"10.598409, 106.4045817",,
634,935,HCM - 156 đường 11,"156 đường số 11, Khu phố 5, Phường Linh Xuân, Thành phố Thủ Đức, Thành Phố Hồ Chí Minh",HCM,Ho Chi Minh,Thu Duc,"10.8865145, 106.7683187",,
635,936,BTH - 547 Trần Hưng Đạo,"547 Trần Hưng Đạo, Thị Trấn Thuận Nam, Huyện Hàm Thuận Nam, Tỉnh Bình Thuận",Central1,Binh Thuan,Ham Thuan Nam,"10.8408423, 107.8610496",,
636,937,BTH - 270 đường 3 tháng 2,"270 Đường 3 Tháng 2, Thị Trấn Đức Tài, Huyện Đức Linh, Tỉnh Bình Thuận",Central1,Binh Thuan,Duc Linh,"11.1493701, 107.5067622",,
637,940,DNA - 362-364 Ông Ích Khiêm,"362-364 Ông Ích Khiêm, phường Vĩnh Trung, Quận Thanh Khê, thành phố Đà Nẵng.",Central2,Da Nang,Thanh Khe,"16.0696545, 108.2136924",,
638,941,ĐTH - 158 - 160 Nguyễn Huệ,"158 - 160 đường Nguyễn Huệ, Khóm 2, Phường 2, Thành Phố Cao Lãnh, Tỉnh Đồng Tháp",Mekong2,Dong Thap,Cao Lanh,"10.4567892, 105.6373644",,
639,944,HCM - 186 đường 51,"186 đường số 51, Phường An Phú, Thành phố Thủ Đức, Thành phố Hồ Chí Minh",HCM,Ho Chi Minh,Thu Duc,"10.7939163, 106.7806081",,
640,945,"BDU - Ô 33,34,35,36 Hai Bà Trưng","Ô 33, Ô 34, Ô 35, Ô 36 - Lô B1; tờ bản đồ số: 1DH2, đường Hai Bà Trưng, khu phố Đông B, phường Đông Hòa, thành phố Dĩ An, tỉnh Bình Dương",SouthEast2,Binh Duong,Di An,"10.894976, 106.7781662",,
641,954,DLK - 245 Phan Chu Trinh,"245 Phan Chu Trinh, Phường Tân Lợi, Thành Phố Buôn Ma Thuột, Tỉnh Đắk Lắk",Highland2,Dak Lak,Buon Me Thuot,"12.6907037, 108.0491914",,
642,958,LDO - 97 Lê Hồng Phong,"97 Lê Hồng Phong, Phường 1, Thành Phố Bảo Lộc, Tỉnh Lâm Đồng",Highland1,Lam Dong,Bao Loc,"11.5434372, 107.8111346",,
643,961,HCM - 10/17 - 11A Đặng Thúc Vịnh,"10/17 - 11A đường Đặng Thúc Vịnh, ấp 7, Xã Đông Thạnh, Huyện Hóc Môn, Thành Phố Hồ Chí Minh",HCM,Ho Chi Minh,Hoc Mon,"10.9087628, 106.644186",,
644,962,BVT - 76 Nguyễn Hữu Thọ,"76 Nguyễn Hữu Thọ, Phường Phước Trung, Thành Phố Bà Rịa, Tỉnh Bà Rịa - Vũng Tàu",SouthEast2,Ba Ria - Vung Tau,Ba Ria,"10.4917359, 107.1737861",,
645,963,PYN - 83-83A Nguyễn Thái Học,"83-83A Nguyễn Thái Học, Phường 3, Thành Phố Tuy Hoà, Tỉnh Phú Yên",Central2,Phu Yen,Tuy Hoa,"13.0901905, 109.3028096",,
646,964,HNI - S2 KĐT Vinhomes Ocean Park,"01Sh18 Vinhomes Ocean Park, Xã Đa Tốn, Huyện Gia Lâm, Thành Phố Hà Nội",North,Ha Noi,Gia Lam,"20.9948063, 105.9464883",,
647,968,HCM - 404 Lê Văn Sỹ,"404 Lê Văn Sỹ, Phường 02, Quận Tân Bình, Thành Phố Hồ Chí Minh",HCM,Ho Chi Minh,Tan Binh,"10.7888401, 106.6764202",,
648,969,TVI - 116 Đường 3/2,"Số 116 Đường 3/2, Khóm Minh Thuận B, Thị Trấn Cầu Ngang, Huyện Cầu Ngang, Tỉnh Trà Vinh",Mekong2,Tra Vinh,Cau Ngang,"9.7983849, 106.4518217",,
649,970,TGI - 73 ĐT867,"Số 73 đường DT867, Khu phố 1, Thị Trấn Mỹ Phước, Huyện Tân Phước, Tỉnh Tiền Giang",Mekong2,Tien Giang,Tan Phuoc,"10.4744327, 106.1962475",,
650,971,HCM - 140A Hoàng Hoa Thám,"140A Hoàng Hoa Thám, Phường 12, Quận Tân Bình, Thành Phố Hồ Chí Minh",HCM,Ho Chi Minh,Tan Binh,"10.8015161, 106.647507",,
651,972,KHO - 17 Nguyễn Huệ,"17 Nguyễn Huệ, Thị Trấn Vạn Giã, Huyện Vạn Ninh, Tỉnh Khánh Hòa",Central1,Khanh Hoa,Van Ninh,"12.7012059, 109.2305795",,
652,973,BVT - D23 Đường Huyện 5,"D23 Đường Huyện 5, Tổ 1, Ấp Phước Thái, Xã Phước Tỉnh, Huyện Long Điền, Tỉnh Bà Rịa - Vũng Tàu",SouthEast2,Ba Ria - Vung Tau,Long Dien,"10.4084604, 107.1921409",,
653,974,LDO - 3 Thôn Phi Nôm,"Số 3, Tổ 27, Thôn Phi Nôm, Xã Hiệp Thạnh, Huyện Đức Trọng, Tỉnh Lâm Đồng",Highland1,Lam Dong,Duc Trong,"11.7841656, 108.4127686",,
654,975,BTH - 321 Ngô Quyền,"321 Ngô Quyền, Khu phố 2, Phường Tân An, Thị xã La Gi, Tỉnh Bình Thuận",Central1,Binh Thuan,Lagi,"10.6835132, 107.7499956",,
655,976,BTH - 345 Huỳnh Thúc Kháng,"345 Huỳnh Thúc Kháng, Phường Mũi Né, Thành Phố Phan Thiết, Tỉnh Bình Thuận",Central1,Binh Thuan,Phan Thiet,"10.9361476, 108.2861162",,
656,977,AGI - Đường DT941,"Đường DT941, Xã Cần Đăng, Huyện Châu Thành, Tỉnh An Giang",Mekong2,An Giang,Chau Thanh,"10.459007, 105.2873773",,
657,978,KGI - 194-195 Quốc Lộ 63,"194-195 Quốc Lộ 63, Khu phố 3, Thị Trấn Thứ Ba, Huyện An Biên, Tỉnh Kiên Giang",Mekong2,Kien Giang,An Bien,"9.7985752, 105.0448701",,
658,979,BTR - 38A Quốc Lộ 57B,"38A Quốc Lộ 57B, Khu phố 1, Thị Trấn Bình Đại, Huyện Bình Đại, Tỉnh Bến Tre",Mekong1,Ben Tre,Binh Dai,"10.1835411, 106.6953146",,
659,980,CTO - Hà Huy Giáp,"Đường Hà Huy Giáp, Thị Trấn Cờ Đỏ, Huyện Cờ Đỏ, Thành Phố Cần Thơ.",Mekong2,Can Tho,Co Do,"10.0928375, 105.4317414",,
664,981,QBI - 02 Hữu Nghị,"02 Hữu Nghị, Phường Bắc Lý, Thành Phố Đồng Hới, Tỉnh Quảng Bình",Central3,Quang Binh,Dong Hoi,"17.484158, 106.6035992",,
661,982,ĐTH - 104-106 Hùng Vương,"104-106 Hùng Vương, Khóm Thượng 1, Thị Trấn Thường Thới Tiền, Huyện Hồng Ngự, Tỉnh Đồng Tháp",Mekong2,Dong Thap,Hong Ngu,"10.8119188, 105.3383663",,
662,983,DON - 1441 Quốc Lộ 20,"1441 Quốc Lộ 20, Tổ 1, Ấp Ngọc Lâm 2, Xã Phú Xuân, Huyện Tân Phú, Tỉnh Đồng Nai",SouthEast2,Dong Nai,Tan Phu,"11.2782705, 107.462707",,
663,984,BDU - 701 Đường ĐT744,"Thửa số 701, tờ bản đồ 36, đường ĐT 744, Khu phố Lồ Ồ, Phường An Tây, Thành phố Bến Cát, Tỉnh Bình Dương",SouthEast2,Binh Duong,Ben Cat,"11.0773679, 106.5646106",,
664,985,TVI - 17 Quốc Lộ 60,"Số 17, Đường Quốc Lộ 60, Khóm 4, Thị Trấn Tiểu Cần, Huyện Tiểu Cần, Tỉnh Trà Vinh",Mekong2,Tra Vinh,Tieu Cau,"9.9588007, 106.2476121",,
665,986,BTH - 38C Nguyễn Hội,"38C Nguyễn Hội, Phường Phú Trinh, Thành Phố Phan Thiết, Tỉnh Bình Thuận",Central1,Binh Thuan,Phan Thiet,"10.9348795, 108.0984209",,
666,987,BTH - 199 Hùng Vương,"199 Đường Hùng Vương, Thị Trấn Tân Nghĩa, Huyện Hàm Tân, Tỉnh Bình Thuận",Central1,Binh Thuan,Duc Linh,"10.8066163, 107.728092",,
667,988,DLK - 54 Nguyễn Tất Thành,"54 Nguyễn Tất Thành, Thị Trấn Krông Năng, Huyện Krông Năng, Tỉnh Đắk Lắk",Highland2,Dak Lak,Krong Nang,"12.9522461, 108.3440557",,
668,989,QNG - 11-13-15 Phạm Văn Đồng,"11-13-15 Phạm Văn Đồng, Thị Trấn Sông Vệ, Huyện Tư Nghĩa, Tỉnh Quảng Ngãi",Central2,Quang Ngai,Tu Nghia,"15.1174759, 108.8109947",,
669,990,BDI - 355 Nguyễn Huệ,"355 Nguyễn Huệ, Thị Trấn Tuy Phước, Huyện Tuy Phước, Tỉnh Bình Định",Central2,Binh Dinh,Tuy Phuoc,"13.8252575, 109.1681039",,
670,991,QTR - 48 Hùng Vương,"48 Hùng Vương, Thị trấn Diên Sanh, Huyện Hải Lăng, Tỉnh Quảng Trị",Central3,Quang Tri,Hai Lang,"16.6948075, 107.2481924",,
671,992,NTH - 544 Thôn Lạc Tân 1,"Thửa đất 544, tờ bản đồ số 28a, Thôn Lạc Tân 1, Xã Phước Diêm, Huyện Thuận Nam, Tỉnh Ninh Thuận",Central1,Ninh Thuan,Ham Thuan Nam,"10.5532535, 106.4847619",,
672,993,HAP - Số 37 Khu BH01 Vinhomes Imperia,"số 37 khu BH01 - ô số 1 lô OTM-5, khu đô thị Vinhomes Imperia, Phường Thượng Lý, Quận Hồng Bàng, Thành Phố Hải Phòng",North,Hai Phong,Hong Bang,"20.8633825, 106.6626076",,
673,994,THO - 73 Nguyễn Huệ,"73 Nguyễn Huệ, Phường Ngọc Trạo, Thị Xã Bỉm Sơn, Tỉnh Thanh Hóa",North,Thanh Hoa,Bim Son,"20.0801902, 105.856103",,
674,995,CTO - Ấp Thới Thuận A,"Ấp Thới Thuận A, Thị Trấn Thới Lai, Huyện Thới Lai, Thành Phố Cần Thơ",Mekong2,Can Tho,Thoi Lai,"10.0593434, 105.5650239",,
675,996,DON - 569 Quốc lộ 20,"569 Quốc lộ 20, Tổ 1, Khu 8, Thị Trấn Tân Phú, Huyện Tân Phú, Tỉnh Đồng Nai",SouthEast2,Dong Nai,Tan Phu,"11.2664923, 107.4297712",,
676,997,BTR - Đường Tỉnh 885,"Đường Tỉnh 885, Ấp Tân Bình, Xã Tân Thủy, Huyện Ba Tri, Tỉnh Bến Tre.",Mekong1,Ben Tre,Ba Tri,"10.0086989, 106.6207802",,
677,998,BDI - 324 Quang Trung,"324 Quang Trung, Thị Trấn Phú Phong, Huyện Tây Sơn, Tỉnh Bình Định",Central2,Binh Dinh,Tay Son,"13.907478, 108.9188871",,
678,999,AGI - 110 Quốc Lộ 91,"110 Quốc Lộ 91, Thị Trấn Cái Dầu, Huyện Châu Phú, Tỉnh An Giang",Mekong2,An Giang,Chau Phu,"10.5809297, 105.2326545",,
679,1000,HNI - SO-02-T7 Vinhomes Times City,"SO-02-T7 Khu đô thị Vinhomes Times City, số 458 đường Minh Khai, Phường Vĩnh Tuy, Quận Hai Bà Trưng, Thành Phố Hà Nội",North,Ha Noi,Hai Ba Trung,"20.9972755, 105.8671037",,